store,address,lng,lat,city,district,city_district
강릉옥천점,강원도 강릉시 경강로 2129,128.8991871,37.7569412,강원도,강릉시,강원도강릉시
강릉중앙점,강원도 강릉시 경강로 2090-1,128.89578590000002,37.7542156,강원도,강릉시,강원도강릉시
동해점,강원도 동해시 중앙로 223,129.1144663,37.520579,강원도,동해시,강원도동해시
삼척점,강원도 삼척시 척주로 16,129.1654523,37.4438517,강원도,삼척시,강원도삼척시
속초점,강원도 속초시 중앙로 43 2층,128.5811885,38.2000862,강원도,속초시,강원도속초시
원주단관점,강원도 원주시 서원대로 408 광장빌딩 2층,127.95000790000002,37.3299891,강원도,원주시,강원도원주시
원주터미널점,강원도 원주시 서원대로 190,127.93239369999999,37.343686100000006,강원도,원주시,강원도원주시
오크밸리(G/V)점,강원도 원주시 지정면 월송리 오크밸리 1길 70,127.84021399999999,37.362103999999995,강원도,원주시,강원도원주시
하이원리조트,강원도 정선군 고한읍 하이원길 500 밸리스키하우스 3층,128.8394698,37.2039389,강원도,정선군,강원도정선군
태백점,강원도 태백시 황지로 164-1,128.99168490000002,37.1732621,강원도,태백시,강원도태백시
삼송점,경기도 고양시 덕양구 삼송로 149,126.8903271,37.6529161,경기도,고양시,경기도고양시
화정점,경기도 고양시 덕양구 화신로260번길 58,126.8333244,37.633272999999996,경기도,고양시,경기도고양시
풍동점,경기도 고양시 일산동구 숲속마을1로 76 힘찬프라자 202호,126.80042560000001,37.667721500000006,경기도,고양시,경기도고양시
라페스타장항점,경기도 고양시 일산동구 중앙로1275번길 38-15 삼희포시즌프라자 201,126.77009299999999,37.6598856,경기도,고양시,경기도고양시
탄현점,경기도 고양시 일산서구 일현로 29 예일프라자 2층 201호,126.7617682,37.689987200000004,경기도,고양시,경기도고양시
경기광주점,경기 광주시 경안로 7 대명빌딩 2F,127.25969180000001,37.4099083,경기도,광주시,경기도광주시
곤지암점,경기도 광주시 곤지암읍 곤지암로 59 2층,127.34014450000001,37.3494661,경기도,광주시,경기도광주시
구리토평점,경기도 구리시 장자대로 80 2층,127.1394193,37.5872902,경기도,구리시,경기도구리시
산본점,경기도 군포시 산본로323번길 16-15 광림프라자 2층,126.93158159999999,37.3594203,경기도,군포시,경기도군포시
김포신도시점,경기도 김포시 김포한강1로 97번길 10-4,126.67126189999999,37.647206,경기도,김포시,경기도김포시
통진점,"경기도 김포시 통진읍 서암로 6 번길 5-17, 102호, 1층",126.59614009999999,37.6868551,경기도,김포시,경기도김포시
덕소점,"경기도 남양주시 와부읍 덕소로 73 세양아르비채리버, 2층",127.2115348,37.5873011,경기도,남양주시,경기도남양주시
호평점,"경기도 남양주시 늘을1로16번길 25 성보빌딩, 2층",127.24288700000001,37.654051200000005,경기도,남양주시,경기도남양주시
진접오남점,경기도 남양주시 진접읍 해밀예당1로 30 2층,127.18647209999999,37.71179420000001,경기도,남양주시,경기도남양주시
마석점,"경기도 남양주시 화도읍 마석로 51, 1층",127.3058879,37.655514399999994,경기도,남양주시,경기도남양주시
별내점,"경기도 남양주시 별내중앙로 83 별내동익미라벨아파트, 1층",127.1208429,37.6490736,경기도,남양주시,경기도남양주시
동두천점,경기도 동두천시 지행동 693 이담,127.0525747,37.8932225,경기도,동두천시,경기도동두천시
중동점,경기도 부천시 중동로254번길 104 호정프라자 2층 205호,126.77466100000001,37.5015605,경기도,부천시,경기도부천시
야탑점,경기도 성남시 분당구 야탑로69번길 24-8 분당종합상가 2F,127.1276327,37.4116424,경기도,성남시,경기도성남시
미금점,경기도 성남시 분당구 돌마로 52 MD프라자 2F,127.1077571,37.3496883,경기도,성남시,경기도성남시
정자수내점,경기도 성남시 분당구 느티로77번길 6-2,127.1134577,37.368855200000006,경기도,성남시,경기도성남시
판교점,경기도 성남시 분당구 서판교로58번길 4-2,127.09826809999998,37.391602500000005,경기도,성남시,경기도성남시
신흥점,경기도 성남시 수정구 산성대로 275 2F,127.1474345,37.4413203,경기도,성남시,경기도성남시
서수원점,경기도 수원시 권선구 금호로 236 2층,126.97595459999998,37.275369700000006,경기도,수원시,경기도수원시
아주대점,경기도 수원시 영통구 중부대로 254 2층,127.04354850000001,37.274524799999995,경기도,수원시,경기도수원시
북수원점,경기도 수원시 장안구 송원로 19,127.0056023,37.2974991,경기도,수원시,경기도수원시
수원역점,경기도 수원시 팔달구 매산로 5-1 2층,127.0021158,37.2672006,경기도,수원시,경기도수원시
영통점,경기도 수원시 영통구 청명남로 40 영통시네마 2층 201호,127.07630149999999,37.252939700000006,경기도,수원시,경기도수원시
시흥은행점,경기도 시흥시 비둘기공원6길 13-1 월드프라자,126.79149469999999,37.44226629999999,경기도,시흥시,경기도시흥시
정왕점,경기도 시흥시 중심상가로 194 명성프라자 2층,126.7365314,37.343984000000006,경기도,시흥시,경기도시흥시
시흥연성점,경기도 시흥시 승지로59번길 1,126.8099616,37.3692119,경기도,시흥시,경기도시흥시
안산중앙점,경기도 안산시 단원구 고잔2길 41 신양복합빌딩 2층,126.8356312,37.3179575,경기도,안산시,경기도안산시
선부점,경기도 안산시 단원구 석수로5길 12 1층,126.80617190000001,37.3432026,경기도,안산시,경기도안산시
안산한대점,"경기도 안산시 상록구 한양대학로 60 한양타운 201,202호",126.83765079999999,37.3008321,경기도,안산시,경기도안산시
안성점,"경기도 안성시 중앙2길 16, 2층",127.27054240000001,37.0081658,경기도,안성시,경기도안성시
비산점,경기도 안양시 동안구 평촌대로 386 1층,126.9501119,37.4051663,경기도,안양시,경기도안양시
평촌점,경기도 안양시 동안구 평촌대로223번길 55 대명빌딩 206호,126.9527341,37.390246600000005,경기도,안양시,경기도안양시
인덕원점,경기도 안양시 동안구 평촌대로 386 1층 미스터피자 비산점,126.9501119,37.4051663,경기도,안양시,경기도안양시
안양점,경기도 안양시 만안구 안양로304번길 13 2층,126.9217667,37.3997302,경기도,안양시,경기도안양시
양주점,경기도 양주시 고읍남로 21 양주프라임타워 1층,127.0791293,37.794672,경기도,양주시,경기도양주시
전곡점,경기도 연천군 전곡읍 전곡로 178 2층,127.06754,38.0278443,경기도,연천군,경기도연천군
오산중앙점,"경기도 오산시 성호대로 77 태원빌딩, 2층",127.06975420000002,37.1490963,경기도,오산시,경기도오산시
수지점,경기도 용인시 수지구 풍덕천로 114,127.0948094,37.3222685,경기도,용인시,경기도용인시
상현점,경기도 용인시 수지구 만현로 82-4 헤르메스상가,127.0858622,37.3094471,경기도,용인시,경기도용인시
용인점,경기도 용인시 처인구 금령로90번길 1 덕윤빌딩,127.2063851,37.23527429999999,경기도,용인시,경기도용인시
의정부금오점,경기도 의정부시 청사로5번길 26 경남프라자 201호,127.06964860000001,37.7488132,경기도,의정부시,경기도의정부시
의정부점,경기도 의정부시 시민로 121번길 54 1층,127.0500136,37.740654799999994,경기도,의정부시,경기도의정부시
의정부호원점,"경기도 의정부시 평화로 185-1, 2층",127.0478992,37.708462,경기도,의정부시,경기도의정부시
문산점,경기도 파주시 문산읍 문향로 74 2층,126.78585520000001,37.8582919,경기도,파주시,경기도파주시
운정점,경기도 파주시 와석순환로 133 2층,126.74513470000001,37.712113,경기도,파주시,경기도파주시
금촌점,경기도 파주시 금빛로 44,126.7679054,37.7524966,경기도,파주시,경기도파주시
안중점(평택),"경기도 평택시 안중읍 안현로서8길 39 근생및위락시설 (염창수) 주건축물제1동, 2층",126.92142820000001,36.979372600000005,경기도,평택시,경기도평택시
송탄점,"경기도 평택시 관광특구로 21, 2층",127.0612608,37.067249600000004,경기도,평택시,경기도평택시
평택역점,경기도 평택시 평택동 41-5,127.0893902,36.993362299999994,경기도,평택시,경기도평택시
하남점,경기도 하남시 하남대로 815 명지캐럿108,127.20697,37.5412085,경기도,하남시,경기도하남시
병점점,경기도 화성시 효행로 1052 씨네샤르망 A-206,127.0424743,37.2139316,경기도,화성시,경기도화성시
동탄점,"경기도 화성시 동탄지성로 108 동탄삼성프라자 203호,204호",127.0636818,37.2084752,경기도,화성시,경기도화성시
향남점,경기도 화성시 향남읍 행정중앙2로 69-19 백현프라자 2층,126.9228383,37.1305645,경기도,화성시,경기도화성시
봉담점,경기도 화성시 봉담읍 와우안길 57,126.97551920000001,37.216412299999995,경기도,화성시,경기도화성시
거창점,경상남도 거창군 거창읍 거열로 131 2층,127.90811370000002,35.6892338,경상남도,거창군,경상남도거창군
동김해점,경상남도 김해시 인제로 174-1 가야서 2층,128.9041871,35.244211299999996,경상남도,김해시,경상남도김해시
김해삼계점,경상남도 김해시 삼계중앙로 23 파크프라자 2층,128.867522,35.2607824,경상남도,김해시,경상남도김해시
율하점,경상남도 김해시 율하2로115번길 13 2층,128.8143011,35.1708434,경상남도,김해시,경상남도김해시
아이스퀘어점,경상남도 김해시 김해대로 2342 아이스퀘어몰 2층(209호 210호),128.8832404,35.2257165,경상남도,김해시,경상남도김해시
남해점,"경상남도 남해군 남해읍 망운로 3, 2층",127.8936293,34.838052600000005,경상남도,남해군,경상남도남해군
밀양점,경상남도 밀양시 미리벌중앙로3길 24-17,128.74651129999998,35.482622799999994,경상남도,밀양시,경상남도밀양시
삼천포점,"경상남도 사천시 신항로 118, 1층",128.086623,34.9378234,경상남도,사천시,경상남도사천시
사천점,"경상남도 사천시 정동면 진삼로 1378, JM팰리스 1층",128.08346740000002,35.07459179999999,경상남도,사천시,경상남도사천시
양산점,경상남도 양산시 양산역4길 11 트윈타워 2층,129.0284251,35.3363631,경상남도,양산시,경상남도양산시
물금점,경상남도 양산시 물금읍 범구로 15 희윤스마티움 1층,129.01353899999998,35.3280318,경상남도,양산시,경상남도양산시
웅상점,경상남도 양산시 삼호1길 52,129.1683861,35.4144999,경상남도,양산시,경상남도양산시
진주교대점,"경상남도 진주시 진양호로 352, 1층",128.0684927,35.183836299999996,경상남도,진주시,경상남도진주시
진주점,"경상남도 진주시 진양호로527번길 12-1, 2층",128.0829649,35.1938278,경상남도,진주시,경상남도진주시
진주도동점,"경상남도 진주시 도동로 242, 2층",128.1221341,35.1918503,경상남도,진주시,경상남도진주시
경상대점,"경상남도 진주시 진주대로 502, 2층",128.1050121,35.151731899999994,경상남도,진주시,경상남도진주시
경남대점,경상남도 창원시 마산합포구 월영동서로 19 2층,128.55989499999998,35.179942,경상남도,창원시,경상남도창원시
합성점,경상남도 창원시 마산회원구 3·15대로 664 청암빌딩 1층,128.5781952,35.232138799999994,경상남도,창원시,경상남도창원시
창원상남점,경상남도 창원시 성산구 상남로 122 롯데메디칼 2층,128.68332959999998,35.2237143,경상남도,창원시,경상남도창원시
창원팔용점,경상남도 창원시 의창구 팔용로 438 팔용종합상가 2층,128.6135031,35.255336799999995,경상남도,창원시,경상남도창원시
창원점,경상남도 창원시 의창구 원이대로589번길 12 강진빌딩 2층,128.6797101,35.228691299999994,경상남도,창원시,경상남도창원시
시티세븐점,경상남도 창원시 의창구 원이대로 332 지하1층,128.6550094,35.239332399999995,경상남도,창원시,경상남도창원시
진해점,"경상남도 창원시 진해구 벚꽃로 63, 2층",128.6629809,35.151483,경상남도,창원시,경상남도창원시
진해석동점,"경상남도 창원시 진해구 진해대로776번길 25, 상보빌딩 2층",128.6985219,35.1564102,경상남도,창원시,경상남도창원시
용원점,"경상남도 창원시 진해구 용재로 16, 2층",128.81155139999998,35.1018619,경상남도,창원시,경상남도창원시
통영점,경상남도 통영시 중앙로 321 유진빌딩 2층,128.42835970000002,34.8589841,경상남도,통영시,경상남도통영시
함안점,"경상남도 함안군 가야읍 함마대로 1500, 1층",128.3997118,35.275232700000004,경상남도,함안군,경상남도함안군
경주중앙점,경상북도 경주시 원효로5번길 10 2층,129.2012871,35.842409,경상북도,경주시,경상북도경주시
경주황성점,경상북도 경주시 황성로 7 2층,129.213202,35.864284000000005,경상북도,경주시,경상북도경주시
구미점,"경상북도 구미시 신시로 71, 1층",128.3386819,36.114292999999996,경상북도,구미시,경상북도구미시
문경점,경상북도 문경시 모전동 당교로 231 1층,128.188179,36.586065000000005,경상북도,문경시,경상북도문경시
안동중앙점,경상북도 안동시 남문로 22-15 2층,128.7307981,36.5650019,경상북도,안동시,경상북도안동시
영주점,경상북도 영주시 대학로 243 1층,128.60444270000002,36.8173013,경상북도,영주시,경상북도영주시
왜관점,경상북도 칠곡군 왜관읍 중앙로5길,128.39938,35.993635,경상북도,칠곡군,경상북도칠곡군
포항대이점,경상북도 포항시 남구 대이로 112 삼성빌딩2층,129.3411893,36.025057200000006,경상북도,포항시,경상북도포항시
포항양덕점,경상북도 포항시 북구 천마로 63 2츨,129.3965264,36.0822726,경상북도,포항시,경상북도포항시
광산점,광주광역시 광산구 사암로 331 2층,126.80870630000001,35.1739544,광주광역시,광산구,광주광역시광산구
첨단수완점,광주광역시 광산구 첨단중앙로 156,126.8423861,35.21913320000001,광주광역시,광산구,광주광역시광산구
광주남구점,광주광역시 남구 백양로 45,126.90685420000001,35.1341508,광주광역시,남구,광주광역시남구
전남대점,광주 북구 우치로90번길 2층,126.91277079999999,35.1754129,광주광역시,북구,광주광역시북구
광주일곡점,광주광역시 북구 설죽로 512 2층,126.89825309999999,35.204854299999994,광주광역시,북구,광주광역시북구
운암점,광주광역시 북구 북문대로 117 2층,126.8745419,35.179648799999995,광주광역시,북구,광주광역시북구
광주상무점,광주 서구 상무중앙로38번길 11-11 덕성빌딩 2층,126.84947820000001,35.151273700000004,광주광역시,서구,광주광역시서구
서광주점,광주광역시 서구 월드컵4강로 56,126.87523909999999,35.1420725,광주광역시,서구,광주광역시서구
두류점,대구광역시 달서구 달구벌대로 1748 1층,128.5564798,35.85705479999999,대구광역시,달서구,대구광역시달서구
성서점,대구광역시 달서구 이곡동 1196-7,128.5044021,35.8550565,대구광역시,달서구,대구광역시달서구
화원점,대구광역시 달성군 화원읍 비슬로 2635,128.5045224,35.805869200000004,대구광역시,달성군,대구광역시달성군
반야월점,대구광역시 동구 안심로73길 22 신서 롯데캐슬레전드 2층,128.7258101,35.870882,대구광역시,동구,대구광역시동구
이시아폴리스점,대구광역시 동구 팔공로 250 2층,128.6418697,35.9209269,대구광역시,동구,대구광역시동구
동서변점,대구광역시 북구 호국로 207 2층,128.5989827,35.9202805,대구광역시,북구,대구광역시북구
침산점,대구광역시 북구 침산로 138 명성프라임 205호 2층,128.591876,35.8887906,대구광역시,북구,대구광역시북구
황금점,"대구광역시 수성구 동대구로 149 코아시스 105-211호, 212호 2층",128.6239027,35.843659,대구광역시,수성구,대구광역시수성구
지산점,대구광역시 수성구 지범로 170 2층,128.6381212,35.821734899999996,대구광역시,수성구,대구광역시수성구
대구중앙점,대구광역시 중구 중앙대로 412-21 2층,128.5950003,35.8699564,대구광역시,중구,대구광역시중구
부산외대점,부산광역시 금정구 금샘로 464 1층,129.0852717,35.2643224,부산광역시,금정구,부산광역시금정구
서동점,부산광역시 금정구 서동로 171,129.1052989,35.2146866,부산광역시,금정구,부산광역시금정구
경성대점,부산광역시 남구 용소로 8 nicemart 2층,129.10022460000002,35.136500500000004,부산광역시,남구,부산광역시남구
동래점,부산광역시 동래구 명륜로 200 1층,129.0829795,35.211574,부산광역시,동래구,부산광역시동래구
서면점,부산광역시 부산진구 서전로10번길 69 2층,129.060049,35.154792,부산광역시,부산진구,부산광역시부산진구
덕천2호점,부산광역시 북구 만덕대로 104,129.0161824,35.2126341,부산광역시,북구,부산광역시북구
화명점,부산광역시 북구 금곡대로 199번길 3,129.0105906,35.2265698,부산광역시,북구,부산광역시북구
엄궁점,부산광역시 사상구 낙동대로 751 2층,128.9694742,35.128462899999995,부산광역시,사상구,부산광역시사상구
다대포점,부산광역시 사하구 다대로 551 2층,128.97129280000001,35.056997700000004,부산광역시,사하구,부산광역시사하구
남천점,부산광역시 수영구 수영로 465 2층,129.11008529999998,35.147526,부산광역시,수영구,부산광역시수영구
아시아드2호점,부산광역시 연제구 월드컵대로 232 거벌빌딩 2층,129.07194040000002,35.1899025,부산광역시,연제구,부산광역시연제구
연산점,부산광역시 연제구 월드컵대로 232 거벌빌딩 2층,129.07194040000002,35.1899025,부산광역시,연제구,부산광역시연제구
영도점,부산광역시 영도구 동삼로 42 1층,129.07099350000001,35.077147700000005,부산광역시,영도구,부산광역시영도구
해운대점,부산광역시 해운대구 세실로 48 해운대삼정코아주상복합 2층,129.178542,35.1695609,부산광역시,해운대구,부산광역시해운대구
역삼점,서울특별시 강남구 테헤란로25길 11 2층,127.0350367,37.5014221,서울특별시,강남구,서울특별시강남구
청담점,서울특별시 강남구 학동로 342 강남구청역 에스케이 허브 블루 2층,127.0408461,37.5167495,서울특별시,강남구,서울특별시강남구
선릉역점,서울특별시 강남구 선릉로 435 원광빌딩,127.04904640000001,37.5040152,서울특별시,강남구,서울특별시강남구
수서점,서울특별시 강남구 밤고개로1길 10 수서현대벤쳐빌 지하1층,127.10184450000001,37.4880245,서울특별시,강남구,서울특별시강남구
압구정점,서울특별시 강남구 압구정로20길 7,127.02485990000001,37.5248506,서울특별시,강남구,서울특별시강남구
양재점,서울특별시 강남구 강남대로 248,127.0339328,37.4857219,서울특별시,강남구,서울특별시강남구
명일점,서울특별시 강동구 양재대로 1624 2층,127.14413880000001,37.550411600000004,서울특별시,강동구,서울특별시강동구
둔촌점,서울특별시 강동구 양재대로 1365 심포니타워 2F,127.1359371,37.52805,서울특별시,강동구,서울특별시강동구
천호점,서울특별시 강동구 구천면로 304 일주빌딩,127.13482979999999,37.546719700000004,서울특별시,강동구,서울특별시강동구
미아점,서울특별시 강북구 솔샘로 335 2층,127.02939520000001,37.6173412,서울특별시,강북구,서울특별시강북구
수유점,서울특별시 강북구 도봉로 352 효성네오인텔리안 2층,127.0270311,37.6386835,서울특별시,강북구,서울특별시강북구
가양점,서울특별시 강서구 화곡로 429 토피아빌딩 201호,126.85506140000001,37.5615258,서울특별시,강서구,서울특별시강서구
발산점,서울특별시 강서구 강서로 281,126.8359753,37.5509213,서울특별시,강서구,서울특별시강서구
방화점,서울특별시 강서구 양천로 87,126.81366680000001,37.5736151,서울특별시,강서구,서울특별시강서구
신림녹두점,서울특별시 관악구 호암로 599,126.933442,37.4709389,서울특별시,관악구,서울특별시관악구
서울대점,서울특별시 관악구 관악로 246,126.9570324,37.486098,서울특별시,관악구,서울특별시관악구
아차산점,서울특별시 광진구 천호대로 647 2층,127.0895583,37.5532471,서울특별시,광진구,서울특별시광진구
구의점,서울특별시 광진구 아차산로 477 2층,127.0947027,37.540720799999995,서울특별시,광진구,서울특별시광진구
대공원점,서울특별시 광진구 광나루로 416 건회빌딩 2층,127.07558200000001,37.5464667,서울특별시,광진구,서울특별시광진구
개봉오류점,서울특별시 구로구 경인로 320,126.85575559999998,37.49710579999999,서울특별시,구로구,서울특별시구로구
구로디지털단지역점,서울특별시 구로구 시흥대로 565 2층,126.9016017,37.4836013,서울특별시,구로구,서울특별시구로구
구로점,서울특별시 구로구 가마산로 265 한솔로이젠트 2층,126.8896962,37.496140600000004,서울특별시,구로구,서울특별시구로구
시흥점,서울특별시 금천구 시흥대로 220 2층,126.9014311,37.4535616,서울특별시,금천구,서울특별시금천구
상계점,"서울특별시 노원구 상계로 71, 2,3층",127.0630002,37.656480200000004,서울특별시,노원구,서울특별시노원구
공릉점,"서울특별시 노원구 동일로 1078, 2층",127.0730794,37.6261429,서울특별시,노원구,서울특별시노원구
방학점,서울특별시 도봉구 도봉로 727 1층,127.0432564,37.6693589,서울특별시,도봉구,서울특별시도봉구
창동점,서울특별시 도봉구 노해로 285,127.0400044,37.651842200000004,서울특별시,도봉구,서울특별시도봉구
경희대점,서울특별시 동대문구 경희대로 9-1 2층,127.0522303,37.59256129999999,서울특별시,동대문구,서울특별시동대문구
전농점,서울특별시 동대문구 서울시립대로 75,127.04866070000001,37.578319799999996,서울특별시,동대문구,서울특별시동대문구
노량진점,서울특별시 동작구 노량진로 180 2층,126.94591499999999,37.5133762,서울특별시,동작구,서울특별시동작구
중앙대점,서울특별시 동작구 서달로13길 2,126.9625342,37.50800039999999,서울특별시,동작구,서울특별시동작구
사당점,서울특별시 동작구 동작대로 153-1,126.9822947,37.4903686,서울특별시,동작구,서울특별시동작구
마포점,서울시 마포구 토정로 31길23 삼성리버웰,126.94168590000001,37.542848,서울특별시,마포구,서울특별시마포구
상암점,서울특별시 마포구 월드컵북로 396 누리꿈스퀘어 2층,126.8903226,37.5794419,서울특별시,마포구,서울특별시마포구
망원점,서울특별시 마포구 월드컵로 67 2층,126.9104902,37.555085600000005,서울특별시,마포구,서울특별시마포구
명지대점,"서울특별시 서대문구 거북골로 10 송정빌딩, 1층",126.92591329999999,37.581070600000004,서울특별시,서대문구,서울특별시서대문구
이대점,서울특별시 서대문구 이화여대8길 10,126.94634599999999,37.5586757,서울특별시,서대문구,서울특별시서대문구
홍제점,"서울특별시 서대문구 세검정로 65-1, 1층",126.94768490000001,37.5937409,서울특별시,서대문구,서울특별시서대문구
방배본점,서울특별시 서초구 효령로 132,126.99840449999999,37.4813666,서울특별시,서초구,서울특별시서초구
서초점,서울특별시 서초구 서초중앙로 220,127.0134115,37.501881,서울특별시,서초구,서울특별시서초구
교대점,서울특별시 서초구 사임당로12길,127.016884,37.488265999999996,서울특별시,서초구,서울특별시서초구
금호점,서울 성동구 금호로 58,127.02606200000001,37.548536299999995,서울특별시,성동구,서울특별시성동구
성수점,서울특별시 성동구 뚝섬로 442 우신빌딩 1층,127.05949109999999,37.5374782,서울특별시,성동구,서울특별시성동구
왕십리점,서울시 성동구 왕십리로 410,127.0247865,37.566550799999995,서울특별시,성동구,서울특별시성동구
돈암점,서울특별시 성북구 아리랑로 46 1층 (동선동 5가),127.01540870000001,37.5967746,서울특별시,성북구,서울특별시성북구
고대점,서울특별시 성북구 고려대로24길 58-5 고려안암빌딩 2층,127.02909040000002,37.583697799999996,서울특별시,성북구,서울특별시성북구
정릉점,서울시 성북구 보국문로 40,127.01026270000001,37.6081328,서울특별시,성북구,서울특별시성북구
잠실점,서울특별시 송파구 올림픽로12길 2 2층,127.08278899999999,37.5112815,서울특별시,송파구,서울특별시송파구
송파점,서울특별시 송파구 송파대로 467,127.1044101,37.5077731,서울특별시,송파구,서울특별시송파구
문정점,서울특별시 송파구 동남로 117,127.12397709999999,37.4905516,서울특별시,송파구,서울특별시송파구
목동중앙점,서울특별시 양천구 등촌로 2 가인빌딩,126.86439150000001,37.530326,서울특별시,양천구,서울특별시양천구
목동점,서울특별시 양천구 목동동로 189 삼성쉐르빌아파트,126.87042,37.522822,서울특별시,양천구,서울특별시양천구
당산점,서울특별시 영등포구 선유로 71 문래임광그대가 1층,126.8892439,37.5201065,서울특별시,영등포구,서울특별시영등포구
여의도점,서울특별시 영등포구 의사당대로 108,126.9238388,37.5210051,서울특별시,영등포구,서울특별시영등포구
보라매점,서울특별시 영등포구 여의대방로 185,126.9214605,37.5036396,서울특별시,영등포구,서울특별시영등포구
이촌점,서울특별시 용산구 이촌로 248 한강맨션 21동 101-2호,126.9730896,37.5192821,서울특별시,용산구,서울특별시용산구
정동점,서울특별시 종로구 새문안로 38 3층,126.96977379999998,37.5683703,서울특별시,종로구,서울특별시종로구
대학로점,서울특별시 종로구 대명길 9,127.0009767,37.5833797,서울특별시,종로구,서울특별시종로구
충무로역점,서울특별시 중구 퇴계로 198 2층,126.9939263,37.5609424,서울특별시,중구,서울특별시중구
청계광장점,서울특별시 중구 무교로 32,126.97957930000001,37.5687701,서울특별시,중구,서울특별시중구
중화점,서울특별시 중랑구 동일로 808 2층,127.0795743,37.6026992,서울특별시,중랑구,서울특별시중랑구
세종첫마을점,세종특별자치시 누리로 28 현대상가,127.25354650000001,36.475426899999995,충청남도,세종특별자치시,충청남도세종특별자치시
울산남구점,울산광역시 남구 삼산로 26,129.31088,35.5326917,울산광역시,남구,울산광역시남구
울산동구점,울산광역시 동구 방어진순환도로,129.42934499999998,35.499865,울산광역시,동구,울산광역시동구
언양점,울산광역시 울주군 삼남면 교동로 121 1층,129.1158088,35.5607479,울산광역시,울주군,울산광역시울주군
온산점,울산광역시 울주군 온산읍 덕남로 17 1층,129.3112051,35.4328027,울산광역시,울주군,울산광역시울주군
계양점,인천시 계양구 봉오대로 671 우남푸르미아 상가 2층,126.723564,37.5309912,인천광역시,계양구,인천광역시계양구
박촌점,인천시 계양구 장제로 940 103호,126.74246959999999,37.54991679999999,인천광역시,계양구,인천광역시계양구
주안역점,인천광역시 남구 주안로 105-1 2층,126.6814975,37.4642274,인천광역시,남구,인천광역시남구
용현점,인천광역시 남구 인주대로 261,126.66580800000001,37.4530362,인천광역시,남구,인천광역시남구
만수점,인천광역시 남동구 구월로 265 2층,126.7200805,37.456069899999996,인천광역시,남동구,인천광역시남동구
만수3지구점,인천광역시 남동구 담방로 39 로얄프라자 2층,126.73851640000001,37.443161700000005,인천광역시,남동구,인천광역시남동구
부평점,인천시 부평구 부평문화로80번길 35 정한빌딩 2층,126.7242848,37.4927848,인천광역시,부평구,인천광역시부평구
갈산점,인천시 부평구 주부토로 231 2층,126.72598119999999,37.5158419,인천광역시,부평구,인천광역시부평구
검단점,인천광역시 서구 서곶로 870,126.67478329999999,37.594769,인천광역시,서구,인천광역시서구
검암점,"인천광역시 서구 승학로 446 소매, 1층",126.6735304,37.5616981,인천광역시,서구,인천광역시서구
청라점,인천 서구 청라커낼로260번길,126.64655800000001,37.53252,인천광역시,서구,인천광역시서구
연수점,인천시 연수구 먼우금로 188번길 12 이리옴3빌딩 202호,126.6765243,37.4134322,인천광역시,연수구,인천광역시연수구
송도점,"인천시 연수구 해돋이로 108 (송도동, 세진프라자) 1층",126.6505138,37.3917583,인천광역시,연수구,인천광역시연수구
영종점,인천시 중구 흰바위로 41 영종에어포트1 203호~204호,126.4894943,37.492779999999996,인천광역시,중구,인천광역시중구
목포중앙점,전라남도 목포시 영산로75번길 29,126.38374920000001,34.7916903,전라남도,목포시,전라남도목포시
남악점,전라남도 목포시 후광대로 110 디-타워,126.44503600000002,34.8109265,전라남도,목포시,전라남도목포시
순천연향점,"전라남도 순천시 연향번영길 147 로또노래방, 2층",127.51858999999999,34.9531534,전라남도,순천시,전라남도순천시
여수중앙점,"전라남도 여수시 충무로 52, 2층",127.7316314,34.7410904,전라남도,여수시,전라남도여수시
영광점,전라남도 영광군 영광읍 남천리 313-1,126.503281,35.276218799999995,전라남도,영광군,전라남도영광군
완도청해점,전라남도 완도군 완도읍 장보고대로 191-1,126.74774359999999,34.3182891,전라남도,완도군,전라남도완도군
군산나운점,전라북도 군산시 공단대로 366,126.7016558,35.961851700000004,전라북도,군산시,전라북도군산시
김제점,"전라북도 김제시 도작로 104, 2층",126.90019199999999,35.803867100000005,전라북도,김제시,전라북도김제시
남원점,"전라북도 남원시 광한서로 57 위생약국, 2층",127.37798049999999,35.4062955,전라북도,남원시,전라북도남원시
봉동점,전라북도 완주군 봉동읍 과학로 1005 1층,127.1257878,35.958755200000006,전라북도,완주군,전라북도완주군
영등점,전북 익산시 무왕로 1052 2층,126.97375509999999,35.9581321,전라북도,익산시,전라북도익산시
전주송천점,전라북도 전주시 덕진구 천마산로 68,127.1288565,35.8648345,전라북도,전주시,전라북도전주시
전북도청점,"전라북도 전주시 완산구 홍산로 253, 2층",127.10546869999999,35.8163752,전라북도,전주시,전라북도전주시
신제주점,제주특별자치도 제주시 신광로 101,126.49010359999998,33.4830398,제주특별자치도,제주시,제주특별자치도제주시
제주중앙점,제주특별자치도 제주시 중앙로 222 2층,126.529458,33.4997641,제주특별자치도,제주시,제주특별자치도제주시
금산점,"충청남도 금산군 금산읍 금산로 1516, 1층",127.4908029,36.1088718,충청남도,금산군,충청남도금산군
논산점,"충청남도 논산시 계백로 990-1, 2층",127.0873325,36.2025544,충청남도,논산시,충청남도논산시
당진점,"충청남도 당진시 당진중앙2로 127, 2층",126.63140729999999,36.8947657,충청남도,당진시,충청남도당진시
보령점,충청남도 보령시 중앙로 95,126.5938172,36.3510766,충청남도,보령시,충청남도보령시
부여점,충청남도 부여군 부여읍 사비로 97,126.91027920000002,36.2812595,충청남도,부여군,충청남도부여군
온양점,충청남도 아산시 온궁로 25,127.00318840000001,36.782301700000005,충청남도,아산시,충청남도아산시
조치원점,세종특별자치시 조치원읍 조치원로 33,127.30036270000001,36.6017206,충청남도,세종특별자치시,충청남도세종특별자치시
예산점,"충청남도 예산군 예산읍 역전로 116 솔로몬빌딩, 2층",126.8300861,36.689489,충청남도,예산군,충청남도예산군
대흥점,"충청남도 천안시 동남구 옛시청길 8 (대흥동), 2층",127.14820990000001,36.8070003,충청남도,천안시,충청남도천안시
단국대천안점,"충청남도 천안시 동남구 단대로 119 (안서동), 1층",127.1685007,36.8373833,충청남도,천안시,충청남도천안시
신방점,충청남도 천안시 동남구 서부대로 247-9,127.1280479,36.7902394,충청남도,천안시,충청남도천안시
쌍용점,"충청남도 천안시 서북구 쌍용13길 26 화순빌딩, 1층",127.12024280000001,36.800357500000004,충청남도,천안시,충청남도천안시
두정점,"충청남도 천안시 서북구 서부대로 746 (두정동), 2층",127.1339261,36.833532299999995,충청남도,천안시,충청남도천안시
직산점,"충청남도 천안시 서북구 성거읍 봉주로 93, 2층",127.1567926,36.8778766,충청남도,천안시,충청남도천안시
제천중앙점,충청북도 제천시 의림대로14길,128.211649,37.138104999999996,충청북도,제천시,충청북도제천시
증평점,"충청북도 증평군 증평읍 중앙로 224, 2층",127.5829784,36.7852143,충청북도,증평군,충청북도증평군
진천점,"충청북도 진천군 진천읍 중앙동로 52-1, 2층",127.44474540000002,36.854617299999994,충청북도,진천군,충청북도진천군
청주금천점,"충청북도 청주시 상당구 수영로 285 튼튼타워, 2층",127.5055246,36.6300333,충청북도,청주시,충청북도청주시
오창점,"충청북도 청주시 청원구 오창읍 과학산업2로 379, 2층",127.4229287,36.7160566,충청북도,청주시,충청북도청주시
청주터미널점,"충청북도 청주시 흥덕구 2순환로 1240 , 2층",127.4300364,36.625434399999996,충청북도,청주시,충청북도청주시
청주지웰시티점,"충청북도 청주시 흥덕구 대농로 17 신영지웰시티 1차, 2층",127.4248449,36.643806899999994,충청북도,청주시,충청북도청주시
