store,address,city,district,lng,lat
가락시영점,서울특별시 송파구 가락로 63,서울특별시,송파구,127.10335479999999,37.499981299999995
가락점,서울특별시 송파구 송이로 93,서울특별시,송파구,127.1210598,37.4979552
가양대교점,서울특별시 강서구 화곡로68길 36,서울특별시,강서구,126.85637179999999,37.5585374
가양점,서울특별시 강서구 강서로 506,서울특별시,강서구,126.84201680000001,37.5705736
가운점,경기도 남양주시 가운로2길 59,경기도,남양주시,127.1571601,37.600438399999994
가재울점,서울특별시 서대문구 거북골로 120,서울특별시,서대문구,126.9157281,37.576173499999996
가평점,경기도 가평군 가평읍 읍내리 가화로 122,경기도,가평읍,127.51335,37.831024
간석2동점,인천광역시 남동구 석산로184번길 1,인천광역시,남동구,126.71258030000001,37.460538299999996
간성점,강원도 고성군 간성읍 간성로 23,강원도,고성군,128.47234939999998,38.3786616
갈현점,서울특별시 은평구 갈현로 262,서울특별시,은평구,126.91634590000001,37.6202156
강남대점,경기도 용인시 기흥구 강남로 8,경기도,용인시,127.1273364,37.2708911
강릉교동점,강원도 강릉시 교동광장로 145,강원도,강릉시,128.8809847,37.7643194
강릉주문진점,강원도 강릉시 주문진읍 주문로 7,강원도,강릉시,128.8250279,37.8844585
강북경찰서점,서울특별시 강북구 오패산로 405,서울특별시,강북구,127.0269324,37.6369398
강원원통점,강원도 인제군 북면 원통로 181,강원도,인제군,128.20394720000002,38.1232245
강일점,서울특별시 강동구 아리수로97길 19,서울특별시,강동구,127.1760274,37.5670476
강화점,인천광역시 강화군 강화읍 강화대로 432,인천광역시,강화군,126.4837009,37.7475267
개롱점,서울특별시 송파구 오금로 407,서울특별시,송파구,127.13639029999999,37.4980109
개봉한진점,서울특별시 구로구 개봉로3길 56,서울특별시,구로구,126.8532347,37.486350099999996
개포1단지점,서울특별시 강남구 선릉로6길 8,서울특별시,강남구,127.06170279999999,37.482561100000005
개화산역점,서울특별시 강서구 양천로 19,서울특별시,강서구,126.80602150000001,37.5727696
거여역점,서울특별시 송파구 양산로 42,서울특별시,송파구,127.1445023,37.4926414
거창점,경상남도 거창군 거창읍 대동리 850-4 ,경상남도,거창군,127.91511240000001,35.6874667
경남고성읍점,경상남도 고성군 고성읍 송학리 264-2,경상남도,고성군,128.3259376,34.9773506
경남창녕읍점,경상남도 창녕군 창녕읍 교상리 30-3,경상남도,창녕군,128.4998851,35.5404718
경남합천점,경상남도 합천군 합천읍 합천리 592-2,경상남도,합천군,128.1606477,35.567088700000006
경리단점,서울특별시 용산구 회나무로13길 10,서울특별시,용산구,126.98959099999999,37.5397771
경복궁역점,서울특별시 종로구 자하문로 19,서울특별시,종로구,126.97180729999998,37.5777469
경북전문대점,경상북도 영주시 대학로 80-1,경상북도,영주시,128.615826,36.8078779
경산사동점,경상북도 경산시 사동 558 ,경상북도,경산시,128.7541201,35.8203393
경신여고사거리점,광주광역시 북구 운암동 110-5 ,광주광역시,북구,126.88963559999999,35.1727866
경희대점,서울특별시 동대문구 회기로 170,서울특별시,동대문구,127.0548487,37.5902995
계룡점,충청남도 계룡시 금암동 162-4 ,충청남도,계룡시,127.25192790000001,36.2732713
계양구청점,인천광역시 계양구 도두리로 33,인천광역시,계양구,126.73809890000001,37.534096000000005
고덕점,서울특별시 강동구 동남로71길 38,서울특별시,강동구,127.1540865,37.5520312
고양능곡점,경기도 고양시 덕양구 토당로 125,경기도,고양시,126.8174643,37.626397
고양도래울점,경기도 고양시 덕양구 도래울2로 3,경기도,고양시,126.8698746,37.630322799999995
고양동점,경기도 고양시 덕양구 혜음로 30,경기도,고양시,126.90252690000001,37.702924700000004
고양삼송점,경기도 고양시 덕양구 삼송로 94-12,경기도,고양시,126.8846119,37.6503429
고양신원마을점,경기도 고양시 덕양구 권율대로 889,경기도,고양시,126.8894779,37.6634715
고양원당점,경기도 고양시 덕양구 호국로790번길 52,경기도,고양시,126.83876629999999,37.6552217
고잔법원점,경기도 안산시 단원구 광덕1로 159,경기도,안산시,126.82716840000002,37.308155799999994
고척점,서울특별시 구로구 고척로 123-2,서울특별시,구로구,126.8479957,37.502294899999995
고흥녹동점,전라남도 고흥군 도양읍 천마로 86,전라남도,고흥군,127.1380503,34.530436
곤지암점,경기도 광주시 곤지암읍 곤지암로 72,경기도,광주시,127.3387513,37.3495445
곰달래점,서울특별시 강서구 곰달래로 272,서울특별시,강서구,126.8631828,37.5321866
공릉점,서울특별시 노원구 동일로192길 87,서울특별시,노원구,127.07758170000001,37.62767
공주신관점,충청남도 공주시 신관동 653-6 ,충청남도,공주시,127.13742590000001,36.4733237
공주중동점,충청남도 공주시 중동 218번지 ,충청남도,공주시,127.12449509999999,36.453323299999994
공항시장역점,서울특별시 강서구 공항대로3길 38,서울특별시,강서구,126.81065749999999,37.5632038
관산점,경기도 고양시 덕양구 통일로768번길 9,경기도,고양시,126.86521880000001,37.6881525
관악드림타운점,서울특별시 관악구 은천로25길 63,서울특별시,관악구,126.94864240000001,37.4888441
광교상현역점,경기도 용인시 수지구 광교중앙로 314,경기도,용인시,127.06974050000001,37.297873200000005
광교웰빙타운점,경기도 수원시 영통구 대학로 103,경기도,수원시,127.0471611,37.3046533
광교힐스테이트점,경기도 수원시 영통구 도청로 65,경기도,수원시,127.050467,37.287934
광명금당사거리,경기도 광명시 금당로 36,경기도,광명시,126.88199709999999,37.4588537
광명새마을시장점,경기도 광명시 광명로 837,경기도,광명시,126.8508481,37.474100899999996
광명소하점,경기도 광명시 기아로 9,경기도,광명시,126.88067659999999,37.4366392
광명시청점,경기도 광명시 오리로 932,경기도,광명시,126.8595885,37.478116
광명점,경기도 광명시 광복로 66,경기도,광명시,126.8656,37.4898263
광양광영점,전라남도 광양시 금영로 132-1 ,전라남도,광양시,127.7198129,34.9624542
광양마동점,전라남도 광양시 마동 1023-2 ,전라남도,광양시,127.69006329999999,34.95486939999999
광양읍점,전라남도 광양시 광양읍 읍내리 285-2 ,전라남도,광양시,127.5866282,34.975371200000005
광양중동점,전라남도 광양시 중동 1655 ,전라남도,광양시,127.6934514,34.9368844
광장점,서울특별시 광진구 아차산로 499,서울특별시,광진구,127.09704369999999,37.5418265
광주1호점,경기도 광주시 오포읍 마루들길 208,경기도,광주시,127.2547485,37.3783382
광주경안점,경기도 광주시 경안로 32,경기도,광주시,127.25728840000001,37.4098013
광주광천점,광주광역시 서구 광천동 199-4 ,광주광역시,서구,126.87837169999999,35.1658413
광주금호점,광주광역시 서구 금호동 805번지,광주광역시,서구,126.8566197,35.131487
광주내방점,광주광역시 서구 내방동 576 ,광주광역시,서구,126.873749,35.15658320000001
광주동림점,광주광역시 서구 동천동 658 동천주공6단지 104호,광주광역시,서구,126.871605,35.1702485
광주두암2동점,광주광역시 북구 두암3동 916-6 ,광주광역시,북구,126.93670929999999,35.1714199
광주문흥점,"광주광역시 북구 문흥동 995-6 ""모아상가""",광주광역시,북구,126.9238014,35.1852289
광주백운점,광주광역시 남구 백운동 460 ,광주광역시,남구,126.9061422,35.139364799999996
광주봉선시장점,"광주광역시 남구 봉선동 985 라인광장제2차상가 103,4호 ",광주광역시,남구,126.90999040000001,35.1298302
광주봉선점,광주광역시 남구 봉선동 114-10 ,광주광역시,남구,126.91279750000001,35.1236322
광주상무버들점,광주광역시 서구 유촌동 865-2 ,광주광역시,서구,126.85977390000001,35.1646344
광주상무점,광주광역시 서구 치평동 1177-3 골드사우나102호 ,광주광역시,서구,126.8477906,35.1487039
광주선운점,광주광역시 광산구 선암동 ,광주광역시,광산구,126.7735129,35.150698999999996
광주송정점,광주광역시 광산구 송정동 895-1 ,광주광역시,광산구,126.7977274,35.134770200000006
광주송정점,경기도 광주시 중앙로 323,경기도,광주시,127.2581567,37.4283589
광주수완점(성덕교점),"광주광역시 광산구 수완동 1428, 102호",광주광역시,광산구,126.82532309999999,35.190383600000004
광주수완중흥점,광주광역시 광산구 신가동 1280 ,광주광역시,광산구,126.81723500000001,35.1813406
광주신창점,광주광역시 광산구 신창동 1224-7 ,광주광역시,광산구,126.8373405,35.191824
광주양산점,광주광역시 북구 양산동 875번지 ,광주광역시,북구,126.87862240000001,35.210336299999994
광주양촌사거리점,경기도 광주시 오포읍 양촌길 116-4,경기도,광주시,127.24674990000001,37.3703909
광주연제점,광주광역시 북구 연제동 36-1 현대APT상가 104호 ,광주광역시,북구,126.87132040000002,35.198885
광주염주점,광주광역시 서구 화정4동 919-7 ,광주광역시,서구,126.87350409999999,35.1409056
광주오치점,광주광역시 북구 오치동 949-27,광주광역시,북구,126.90283190000001,35.1873966
광주우산점,광주광역시 북구 문흥동 939-1,광주광역시,북구,126.91713659999999,35.1790687
광주운남점,"광주광역시 광산구 운남동 785-3 ""운남메디칼"" ",광주광역시,광산구,126.8143932,35.1753937
광주운암점,광주광역시 북구 운암동 67번지 1-A ,광주광역시,북구,126.87722120000001,35.1767689
광주월계점,광주광역시 광산구 월계동 759-3 ,광주광역시,광산구,126.8360699,35.218103899999996
광주일곡점,광주광역시 북구 일곡동 850-5 호반APT상가 103호 ,광주광역시,북구,126.8967179,35.208181
광주장덕점,광주광역시 광산구 장덕동 1390,광주광역시,광산구,126.81458429999999,35.1946036
광주전대상대점,광주광역시 북구 용봉동 1238-30 ,광주광역시,북구,126.90079720000001,35.179203799999996
광주전대정문점,광주광역시 북구 신안동 210-1 ,광주광역시,북구,126.9047709,35.1715162
광주조대점,광주광역시 동구 동명동 135-2,광주광역시,동구,126.92726929999999,35.147006700000006
광주진월점,광주광역시 남구 진월동 285-3 ,광주광역시,남구,126.897295,35.1222686
광주첨단2지구점,광주광역시 북구 신용동 684 ,광주광역시,북구,126.8631255,35.2087585
광주첨단점,광주광역시 광산구 월계동 766-3 ,광주광역시,광산구,126.8422857,35.213271
광주탄벌점,경기도 광주시 벌원길 67,경기도,광주시,127.248356,37.4159494
광주풍암점,광주광역시 서구 풍암동 1123-1 ,광주광역시,서구,126.87961680000001,35.1254575
광주하남2지구점,광주광역시 광산구 산정동 1017-8 ,광주광역시,광산구,126.79895800000001,35.176065
광주하남점,광주광역시 광산구 우산동 1579-3 ,광주광역시,광산구,126.80674029999999,35.1635475
광주효천2지구점,광주광역시 남구 행암동 579,광주광역시,남구,126.8892557,35.1022818
광진구청점,서울특별시 광진구 자양로 120,서울특별시,광진구,127.08358510000001,37.5385811
광천점,충청남도 홍성군 광천읍 광천리 244-1 ,충청남도,홍성군,126.6259625,36.502630200000006
광혜원점,충청북도 진천군 광혜원면 광혜원리 247-1 ,충청북도,진천군,127.4457159,36.9903232
괴산점,충청북도 괴산군 괴산읍 동부리 661-86,충청북도,괴산군,127.7929914,36.8091186
구갈점,경기도 용인시 기흥구 관곡로64번길 18,경기도,용인시,127.1124939,37.2811299
구로1점,서울특별시 구로구 도림로 65,서울특별시,구로구,126.8908878,37.489393799999995
구로5동점,서울특별시 구로구 공원로 35,서울특별시,구로구,126.89044720000001,37.500094700000005
구로전화국점,서울특별시 금천구 독산로 353,서울특별시,금천구,126.90361979999999,37.47844570000001
구리갈매점,경기도 구리시 갈매중앙로 89-8,경기도,구리시,127.1173187,37.6328665
구리검배사거리점,경기도 구리시 벌말로 186,경기도,구리시,127.15058729999998,37.5928658
구리수택점,경기도 구리시 체육관로80번길 19,경기도,구리시,127.13904950000001,37.5919196
구리인창점,경기도 구리시 동구릉로85번길 25,경기도,구리시,127.1330541,37.608793
구리주공점,경기도 구리시 건원대로76번길 29,경기도,구리시,127.14057779999999,37.608332399999995
구미공단점,경상북도 구미시 공단동 109,경상북도,구미시,128.3729056,36.121346200000005
구미도량점,경상북도 구미시 도량동 227-4,경상북도,구미시,128.3171529,36.139281200000006
구미상모초교점,경상북도 구미시 임은동 801-1 ,경상북도,구미시,128.35859409999998,36.089777500000004
구미형곡점,경상북도 구미시 형곡동 292-3,경상북도,구미시,128.3336651,36.107324600000005
구미황상점,경상북도 구미시 황상동 200-7,경상북도,구미시,128.42632659999998,36.1173592
구반포역점,서울특별시 서초구 신반포로 49,서울특별시,서초구,126.9900136,37.502212899999996
구산역점,서울특별시 은평구 서오릉로 130,서울특별시,은평구,126.91850159999998,37.6107829
구일점,서울특별시 구로구 구일로4길 46,서울특별시,구로구,126.877219,37.4927124
군산나운점,전라북도 군산시 나운동 153-7번지,전라북도,군산시,126.69962920000002,35.961243599999996
군산대점,전라북도 군산시 미룡동 888-2 ,전라북도,군산시,126.687702,35.9447964
군산명산사거리점,전라북도 군산시 명산동 7-8 ,전라북도,군산시,126.70977040000001,35.9849829
군산수송점,전라북도 군산시 수송동 841 101호 ,전라북도,군산시,126.71945590000001,35.9665664
군자역점,서울특별시 광진구 천호대로111길 24,서울특별시,광진구,127.0826068,37.5573223
군포경찰서점,경기도 군포시 번영로550번길 3,경기도,군포시,126.9377586,37.360041700000004
군포당동점,경기도 군포시 고산로 251,경기도,군포시,126.9440742,37.3459376
군포대야미점,경기도 군포시 대야1로22번길 4,경기도,군포시,126.91765149999999,37.327507399999995
군포흥진점,경기도 군포시 광정로 25-58,경기도,군포시,126.93052709999999,37.3541645
금산점,충청남도 금산군 금산읍 상리 175-3 엔이시티110호 ,충청남도,금산군,127.4892689,36.1033471
금왕점,충청북도 음성군 금왕읍 무극리 513-1 ,충청북도,음성군,127.590097,36.9923516
금호점,서울특별시 성동구 장터길 43,서울특별시,성동구,127.02074440000001,37.5484004
길동점,서울특별시 강동구 양재대로116길 38,서울특별시,강동구,127.14248789999999,37.538154799999994
길음역점,서울특별시 성북구 동소문로 248,서울특별시,성북구,127.02367360000001,37.6026982
김량장점,경기도 용인시 처인구 중부대로 1360,경기도,용인시,127.19553810000001,37.2343406
김천아포점,경상북도 김천시 아포읍 국사리 1004,경상북도,김천시,128.2623756,36.1595321
김천평화점,경상북도 김천시 평화동 245-24 ,경상북도,김천시,128.11155490000002,36.1253548
김천혁신점,경상북도 김천시 율곡동 652,경상북도,김천시,128.18804,36.1222722
김포감정점,경기도 김포시 중봉1로 9,경기도,김포시,126.6987058,37.6230028
김포고촌점,경기도 김포시 고촌읍 장차로 1,경기도,김포시,126.76963899999998,37.60255479999999
김포사우점,경기도 김포시 사우중로 79,경기도,김포시,126.72052109999998,37.6218911
김포양곡점,경기도 김포시 양촌읍 양곡로 495,경기도,김포시,126.6281128,37.655164299999996
김포장기점,경기도 김포시 김포한강1로51번길 28,경기도,김포시,126.66698090000001,37.6441539
김포통진점,경기도 김포시 통진읍 조강로 40,경기도,김포시,126.6011313,37.6898125
김포풍무점,경기도 김포시 풍무로 105,경기도,김포시,126.72186799999999,37.604937899999996
김해구산점,경상남도 김해시 구산동 483-1,경상남도,김해시,128.8721516,35.2513855
김해내외점,경상남도 김해시 외동 1253-4 임호빌딩 103호 ,경상남도,김해시,128.8655187,35.232634999999995
김해부원점,경상남도 김해시 부원동 609-22 ,경상남도,김해시,128.8827615,35.2287217
김해삼계점,경상남도 김해시 삼계동 1439-5번지 가야아이파크 상가,경상남도,김해시,128.87023390000002,35.2644793
김해삼방점,경상남도 김해시 삼방동 665-8 ,경상남도,김해시,128.9097391,35.250792
김해장유삼문점,경상남도 김해시 장유면 삼문리 39-14 ,경상남도,김해시,128.808808,35.203742
김해진영읍점,경상남도 김해시 진영읍 여래리 708-4,경상남도,김해시,128.73540549999998,35.3029004
나주빛가람점,전라남도 나주시 빛가람동 692-4,전라남도,나주시,126.78804540000002,35.0097464
낙성대역점,서울특별시 관악구 남부순환로 1949,서울특별시,관악구,126.9656159,37.4765457
난곡점,서울특별시 관악구 난곡로 203,서울특별시,관악구,126.91849740000002,37.473110299999995
난곡파로스점,서울특별시 관악구 난곡로 100,서울특별시,관악구,126.9195348,37.4642923
남목3동점,울산광역시 동구 서부동 351-1 ,울산광역시,동구,129.4255546,35.5412333
남부터미널역점,서울특별시 서초구 서초중앙로 42,서울특별시,서초구,127.01627579999999,37.4858725
남성역점,서울특별시 동작구 사당로 226,서울특별시,동작구,126.9728006,37.4835662
남양주금곡점,경기도 남양주시 금곡로38,경기도,남양주시,127.2073527,37.6339415
남양주덕소점,경기도 남양주시 와부읍 덕소로 72,경기도,남양주시,127.21113600000001,37.5870289
남양주도곡점,경기도 남양주시 와부읍 덕소로 194,경기도,남양주시,127.2161087,37.5789305
남양주도농점,경기도 남양주시 도농로17번길 1,경기도,남양주시,127.1569385,37.6075609
남양주마석점,경기도 남양주시 화도읍 마석로 59,경기도,남양주시,127.3057733,37.6562342
남양주사능점,경기도 남양주시 진건읍 진건오남로 93,경기도,남양주시,127.1780933,37.659094700000004
남양주양지점,경기도 남양주시 오남읍 진건오남로 793,경기도,남양주시,127.2031758,37.6974596
남양주장현점,경기도 남양주시 진접읍 장현로 63,경기도,남양주시,127.180151,37.716651
남양주진접1호점,경기도 남양주시 진접읍 해밀예당3로 52,경기도,남양주시,127.19856680000001,37.7144909
남양주청학점,경기도 남양주시 별내면 청학로68번길 5-18,경기도,남양주시,127.1190261,37.70853889999999
남양주평내점,경기도 남양주시 평내로 88,경기도,남양주시,127.23687690000001,37.643269200000006
남양주호평점,경기도 남양주시 늘을2로 26,경기도,남양주시,127.2441115,37.6550783
남원하정점,전라북도 남원시 하정동 180-1,전라북도,남원시,127.37956100000001,35.4073573
남춘천점,강원도 춘천시 춘주로 150,강원도,춘천시,127.7245283,37.8581338
남현점,서울특별시 관악구 남현1가길 4,서울특별시,관악구,126.97760840000001,37.475718
내발산점,서울특별시 강서구 강서로 306,서울특별시,강서구,126.83675590000001,37.55289129999999
노룬산점,서울특별시 광진구 뚝섬로 480,서울특별시,광진구,127.06354409999999,37.5364452
노원점,서울특별시 노원구 동일로 1390,서울특별시,노원구,127.0615013,37.6527203
녹번점,서울특별시 은평구 은평로 197-1,서울특별시,은평구,126.9295919,37.6018747
논산연무점,충청남도 논산시 연무읍 안심리 1-125 ,충청남도,논산시,127.0992933,36.1324633
논산점,충청남도 논산시 취암동 574-50 ,충청남도,논산시,127.089211,36.199870000000004
논현점,서울특별시 강남구 강남대로122길 41,서울특별시,강남구,127.02629070000002,37.508813700000005
능평삼거리점,경기도 광주시 오포읍 오포로 121,경기도,광주시,127.17951229999998,37.3441952
답십리점,서울특별시 동대문구 전농로 104,서울특별시,동대문구,127.057829,37.5742794
당고개점,서울특별시 노원구 상계로 306,서울특별시,노원구,127.0795793,37.6703196
당산점,서울특별시 영등포구 당산로44길 3,서울특별시,영등포구,126.90077990000002,37.531988399999996
당진신평점,충청남도 당진시 신평면 거산리 182-12 ,충청남도,당진시,126.7531545,36.8792671
당진원당점,충청남도 당진시 당진시 밤절로 104 그린빌아파트 상가,충청남도,당진시,126.643147,36.900862
당진읍내점,충청남도 당진시 당진읍 읍내리 242-1 ,충청남도,당진시,126.63738000000001,36.895979
대구감삼점,"대구광역시 달서구 감삼동 320-15 ""감삼빌딩"" ",대구광역시,달서구,128.54118,35.843709499999996
대구담티역점,대구광역시 수성구 만촌동 860 금탑상가 3동9호 ,대구광역시,수성구,128.6535867,35.854231
대구대곡역점,대구광역시 달성군 화원읍 구라리 1717,대구광역시,달성군,128.5111986,35.8110071
대구도원점,대구광역시 달서구 도원동 1431-4 전원빌딩109호,대구광역시,달서구,128.5355107,35.808004499999996
대구동호지구점,"대구광역시 동구 신서동 538-1,동호해오름타운101-104 ",대구광역시,동구,128.7263561,35.867459499999995
대구범어역점,대구광역시 수성구 범어동 792-4,대구광역시,수성구,128.6241387,35.8580311
대구봉덕점,대구광역시 남구 봉덕동 1327-98,대구광역시,남구,128.5993201,35.8368247
대구불로점,대구광역시 동구 불로동 400 ,대구광역시,동구,128.64076459999998,35.9115646
대구사월역점,대구광역시 수성구 신매동 10-7 시지퍼스트111호,대구광역시,수성구,128.7159904,35.8364195
대구상인점,대구광역시 달서구 상인동 1514 동방타운상가 106동 110호 ,대구광역시,달서구,128.5405349,35.817177
대구용산점,대구광역시 달서구 용산1동 932-6 ,대구광역시,달서구,128.5308691,35.858044
대구월성점,대구광역시 달서구 월성2동 273-4 센트로벨리107 ,대구광역시,달서구,128.5308219,35.831635399999996
대구지산점,대구광역시 수성구 지산동 1288-9 ,대구광역시,수성구,128.6402007,35.8218744
대구침산점,대구광역시 북구 침산동 430-1 포브스109호 ,대구광역시,북구,128.58625,35.8889375
대구테크노폴리스점,대구광역시 대구 달성군 유가면 봉리 607,대구광역시,대구,128.470459,35.692689
대림사거리점,서울특별시 동작구 대림로 56,서울특별시,동작구,126.9073949,37.488456799999994
대림우성점,서울특별시 영등포구 대림로 154,서울특별시,영등포구,126.9003403,37.4947705
대방현대점,서울특별시 동작구 등용로 127,서울특별시,동작구,126.93067140000001,37.5129359
대소점,충청북도 음성군 대소면 태생리 539-22,충청북도,음성군,127.49068770000001,36.9659251
대전가장점,대전광역시 서구 가장동 55,대전광역시,서구,127.3841518,36.3338321
대전갈마점,대전광역시 서구 갈마동 351-2 ,대전광역시,서구,127.37171770000002,36.3472701
대전관저원앙점,대전광역시 서구 관저동 1833번지,대전광역시,서구,127.33682350000001,36.3072453
대전관저점,대전광역시 서구 관저동 구봉마을 8단지 정문상가,대전광역시,서구,127.33192,36.298836
대전낭월점,대전광역시 동구 낭월동 468 ,대전광역시,동구,127.4678507,36.2803639
대전노은역점,대전광역시 유성구 지족동 905-4,대전광역시,유성구,127.31850619999999,36.372547
대전둔산3동점,대전광역시 서구 둔산3동 1929 ,대전광역시,서구,127.3971415,36.35063579999999
대전만년점,대전광역시 서구 만년동 267 ,대전광역시,서구,127.37648519999999,36.3658594
대전문화점,대전광역시 중구 문화동 1-3 센트럴 파크 APT 상가 102,대전광역시,중구,127.4126263,36.3186963
대전복수점,대전광역시 서구 복수동 757 ,대전광역시,서구,127.37793629999999,36.297964799999995
대전중리점,대전광역시 대덕구 중리동 243-26 ,대전광역시,대덕구,127.4272388,36.3558546
대전태평점,대전광역시 중구 유천동 197-1 ,대전광역시,중구,127.39690690000002,36.322125899999996
대전테크노밸리점,대전광역시 유성구 관평동 672 ,대전광역시,유성구,127.38913729999999,36.4190461
대천점,충청남도 보령시 대천동 197-118 ,충청남도,보령시,126.59539850000002,36.3505782
대치점,서울특별시 강남구 도곡로84길 6,서울특별시,강남구,127.06264979999999,37.4989174
대화역점,경기도 고양시 강성로270,경기도,고양시,126.74747350000001,37.6780362
대흥역점,서울특별시 마포구 백범로 86,서울특별시,마포구,126.9408179,37.5481775
덕성여대점,서울특별시 도봉구 우이천로 478,서울특별시,도봉구,127.01592169999999,37.6557012
도림점,서울특별시 영등포구 대림로 247,서울특별시,영등포구,126.8962808,37.5025692
도봉점,서울특별시 도봉구 도봉로 883,서울특별시,도봉구,127.0456653,37.683187
독바위역점,서울특별시 은평구 불광로 105,서울특별시,은평구,126.93271990000001,37.6161592
독산홈플러스점,서울특별시 금천구 시흥대로 406,서울특별시,금천구,126.8984176,37.4696868
돈암점,서울특별시 성북구 아리랑로 68,서울특별시,성북구,127.01544129999999,37.5989165
동교점,서울특별시 마포구 동교로 205,서울특별시,마포구,126.9231345,37.5584188
동두천불현점,경기도 동두천시 행선로 102,경기도,동두천시,127.06276629999999,37.8971581
동두천중앙역점,경기도 동두천시 중앙로 227,경기도,동두천시,127.0528909,37.9019766
동묘앞역점,서울특별시 종로구 지봉로 50,서울특별시,종로구,127.01598600000001,37.574498600000005
동백역점,경기도 용인시 기흥구 동백3로11번길 8,경기도,용인시,127.1535929,37.2696458
동양미래대학점,서울특별시 구로구 경인로47길 31,서울특별시,구로구,126.86619640000002,37.5006224
동작구청점,서울특별시 동작구 장승배기로 164,서울특별시,동작구,126.94040509999999,37.5123258
동탄반송점,경기도 화성시 동탄솔빛로 65,경기도,화성시,127.07414240000001,37.194585100000005
동탄시범단지점,경기도 화성시 동탄대로시범길 235,경기도,화성시,127.1032486,37.2017758
동탄카림점,경기도 화성시 동탄대로시범길 148-54,경기도,화성시,127.11371640000002,37.2005425
동탄푸른점,경기도 화성시 10용사로 349-3,경기도,화성시,127.0562002,37.199326899999996
둔촌점,서울특별시 강동구 양재대로 1339,서울특별시,강동구,127.13502890000001,37.525957700000006
등촌점,서울특별시 강서구 공항대로41길 50,서울특별시,강서구,126.84611609999999,37.5598941
뚝섬역점,서울특별시 성동구 상원길 52,서울특별시,성동구,127.048373,37.5486145
마곡역점,서울특별시 강서구 공항대로 140,서울특별시,강서구,126.82287340000002,37.559003000000004
마들역점,서울특별시 노원구 동일로 1538,서울특별시,노원구,127.05786140000001,37.66621729999999
마린시티점,부산광역시 해운대구 우동 1434번지,부산광역시,해운대구,129.1475905,35.157827000000005
마산서중점,경상남도 창원시 마산합포구 해운동 15-10,경상남도,창원시,128.5581964,35.1783833
마장역점,서울특별시 성동구 마장로 299,서울특별시,성동구,127.042751,37.5662755
마천점,서울특별시 송파구 성내천로 218,서울특별시,송파구,127.151719,37.4996443
마포구청역점,서울특별시 마포구 방울내로 87,서울특별시,마포구,126.90484029999999,37.5610388
마포도화점,서울특별시 마포구 삼개로 24,서울특별시,마포구,126.9472877,37.5380636
마포창전점,서울특별시 마포구 서강로9길 48,서울특별시,마포구,126.9311582,37.5542375
만리점,서울특별시 마포구 만리재옛길 104,서울특별시,마포구,126.9616259,37.5511471
망우1동점,서울특별시 중랑구 망우로 463,서울특별시,중랑구,127.103649,37.600664
망우우림시장점,서울특별시 중랑구 봉우재로 239,서울특별시,중랑구,127.0995293,37.59574779999999
망원점,서울특별시 마포구 월드컵로13길 56,서울특별시,마포구,126.90703870000002,37.555375399999996
매봉역점,서울특별시 강남구 남부순환로378길 8,서울특별시,강남구,127.04561029999999,37.485744200000006
면목점,서울특별시 중랑구 겸재로 178,서울특별시,중랑구,127.08729369999999,37.5881634
명일점,서울특별시 강동구 구천면로 424,서울특별시,강동구,127.14559740000001,37.5503475
명지대점,서울특별시 서대문구 거북골로 14,서울특별시,서대문구,126.9255787,37.5808295
목3동점,서울특별시 양천구 등촌로 172,서울특별시,양천구,126.8625878,37.5450758
목동1점,서울특별시 양천구 목동중앙로 89,서울특별시,양천구,126.87197579999999,37.5373138
목사거리점,서울특별시 강서구 곰달래로 271,서울특별시,강서구,126.863165,37.532511799999995
목포산정점,전라남도 목포시 산정동 1767-2 ,전라남도,목포시,126.37385630000001,34.8067633
목포석현점,전라남도 목포시 상동 251-5 ,전라남도,목포시,126.41849540000001,34.81670020000001
목포연동점,전라남도 목포시 산정동 1086-34 ,전라남도,목포시,126.39339960000001,34.7944364
목포용해점,전라남도 목포시 용해동 1051 골드디움 6차 상가,전라남도,목포시,126.39274950000001,34.819636700000004
묵동점,서울특별시 중랑구 공릉로2길 26,서울특별시,중랑구,127.07938859999999,37.6119284
문경점촌점,경상북도 문경시 점촌동 248-7,경상북도,문경시,128.19861699999998,36.5957698
문막동화점,강원도 원주시 문막읍 왕건로 75,강원도,원주시,127.82910829999999,37.326242799999996
문산당동점,"경기도 파주시 문산읍 방촌로 1719, 1층",경기도,파주시,126.7843904,37.8661115
문산역점,경기도 파주시 문산읍 문향로 25,경기도,파주시,126.7859567,37.8543341
문정점,서울특별시 송파구 송이로 198-1,서울특별시,송파구,127.12788290000002,37.4901387
문현점,부산광역시 남구 문현동 98,부산광역시,남구,129.0768648,35.143645
문화촌점,서울특별시 서대문구 세검정로 57,서울특별시,서대문구,126.94722150000001,37.593029
미아삼거리역점,서울특별시 강북구 도봉로13길 38,서울특별시,강북구,127.02819240000001,37.615263899999995
미아역점,서울특별시 강북구 솔매로 121,서울특별시,강북구,127.02555759999998,37.626175
방배본동점,서울특별시 서초구 동광로 56-4,서울특별시,서초구,126.98877069999999,37.4920415
방배역점,서울특별시 서초구 방배로13길 19,서울특별시,서초구,126.9954125,37.4827199
방이점,서울특별시 송파구 마천로 61,서울특별시,송파구,127.1274538,37.50820039999999
방학신동아점,서울특별시 도봉구 방학로 183,서울특별시,도봉구,127.0320375,37.6620237
방학점,서울특별시 도봉구 도봉로150길 43,서울특별시,도봉구,127.0455905,37.6664777
방화역점,서울특별시 강서구 금낭화로 128,서울특별시,강서구,126.8126977,37.5765653
번동점,서울특별시 강북구 오현로 197-2,서울특별시,강북구,127.03960890000002,37.6292321
별내점,경기도 남양주시 별내중앙로 84,경기도,남양주시,127.12194129999999,37.649718299999996
병점송화초점,경기도 화성시 병점1로 66-2,경기도,화성시,127.04114890000001,37.2028966
병점점,경기도 화성시 효행로 1063,경기도,화성시,127.04314690000001,37.2149941
보광점,서울특별시 용산구 보광로 45,서울특별시,용산구,126.9989374,37.5281045
보라매역점,서울특별시 동작구 여의대방로 180,서울특별시,동작구,126.92173390000002,37.5030372
보문역점,서울특별시 성북구 지봉로 180,서울특별시,성북구,127.01882959999999,37.584969
보은점,충청북도 보은군 보은읍 교사리 41-2 ,충청북도,보은군,127.72084009999999,36.484988
봉동터미널점,전라북도 완주군 봉동읍 장기리 159,전라북도,완주군,127.1678263,35.9396613
봉일천점,경기도 파주시 조리읍 봉천로 29,경기도,파주시,126.80843030000001,37.7432211
봉천점,서울특별시 관악구 청룡2길 47,서울특별시,관악구,126.94349070000001,37.4814599
봉천중앙시장점,서울특별시 관악구 관악로 211,서울특별시,관악구,126.9543477,37.4842229
봉화산역점,서울특별시 중랑구 신내로 211,서울특별시,중랑구,127.09264920000001,37.6164445
부경대점,부산광역시 남구 대연동 364-15,부산광역시,남구,129.09843370000002,35.1341939
부산가야점,부산광역시 부산진구 가야동 386,부산광역시,부산진구,129.0389736,35.1537792
부산거제점,부산광역시 부산시 연제구 거제천로87번길 35,부산광역시,부산시,129.07138799999998,35.182775
부산광안점,부산광역시 수영구 광안동 496-23,부산광역시,수영구,129.1115576,35.1621612
부산구포3동점,부산광역시 북구 구포동 1261-32 ,부산광역시,북구,129.0064954,35.1974349
부산기장점,부산광역시 기장군 기장읍 동부리 152-7,부산광역시,기장군,129.2166837,35.247755100000006
부산남천역점,부산광역시 수영구 남천동 19-13 ,부산광역시,수영구,129.1078354,35.141499700000004
부산남항점,부산광역시 영도구 남항동 2가 265-1 ,부산광역시,영도구,129.0404672,35.0886157
부산다대1동점,부산광역시 사하구 다대1동 942-15 ,부산광역시,사하구,128.96994899999999,35.0577134
부산당리점,부산광역시 사하구 당리동 163 ,부산광역시,사하구,128.97504320000002,35.106523700000004
부산대연점,부산광역시 남구 대연5동 1364-9,부산광역시,남구,129.0905452,35.136821600000005
부산더샵파크점,부산광역시 연제구 연산동 303-24,부산광역시,연제구,129.0943096,35.191114299999995
부산동대신점,부산광역시 서구 서대신동3가 387-10 ,부산광역시,서구,129.0161082,35.113024200000005
부산동서대점,부산광역시 사상구 주례동 80-44,부산광역시,사상구,129.0126881,35.148675
부산동아대점,부산광역시 사하구 하단동 497-26,부산광역시,사하구,128.9656895,35.110946399999996
부산두실점,부산광역시 금정구 구서2동 164-22,부산광역시,금정구,129.0896199,35.2580884
부산망미주공점,부산광역시 연제구 연산9동 57-31 ,부산광역시,연제구,129.1069326,35.1806553
부산명륜점,부산광역시 동래구 명륜동 8-69,부산광역시,동래구,129.0867633,35.21621270000001
부산반송점,부산광역시 해운대구 반송동 93-1 광하상가 5-6호 ,부산광역시,해운대구,129.1594014,35.229949700000006
부산반여1동점,부산광역시 해운대구 반여1동 1441-136 ,부산광역시,해운대구,129.11905819999998,35.201113799999995
부산배산역점,부산광역시 수영구 망미동 832-12,부산광역시,수영구,129.09954150000002,35.1733075
부산부곡1동점,부산광역시 금정구 부곡동 308-23,부산광역시,금정구,129.0924294,35.2252494
부산부곡3동점,부산광역시 금정구 부곡동 63-11,부산광역시,금정구,129.0914028,35.2403381
부산사직점,부산광역시 동래구 사직동 43-1번지 1층 3호 ,부산광역시,동래구,129.0573173,35.19858320000001
부산서동점,부산광역시 금정구 서동 196-68,부산광역시,금정구,129.10434080000002,35.2154031
부산안락점,부산광역시 동래구 안락동 468-24,부산광역시,동래구,129.11145870000001,35.1991122
부산여대점,부산광역시 부산진구 양정동 360-32,부산광역시,부산진구,129.0704683,35.168661900000004
부산용호점,부산광역시 남구 용호동 371-27,부산광역시,남구,129.1126885,35.1196133
부산장전1동점,부산광역시 금정구 장전동 153-4,부산광역시,금정구,129.0848081,35.2379549
부산재송점,부산광역시 해운대구 재송동 1150-5 ,부산광역시,해운대구,129.1304466,35.1934196
부산정관용수점,부산광역시 기장군 정관면 용수리,부산광역시,기장군,129.1626134,35.3256116
부산좌4동점,부산광역시 해운대구 좌동 1407-3,부산광역시,해운대구,129.1755464,35.1780895
부산지사점,부산광역시 강서구 지사동 1194-9 ,부산광역시,강서구,128.8342287,35.150510100000005
부산학장점,부산광역시 사상구 학장동 573-1 반도프라자상가 ,부산광역시,사상구,128.9790778,35.1376018
부산화명점,부산광역시 북구 화명동 2267-2 ,부산광역시,북구,129.01035670000002,35.2360252
부천고강점,경기도 부천시 역곡로 487,경기도,부천시,126.81585700000001,37.528254
부천도당점,경기도 부천시 삼작로 278,경기도,부천시,126.7923466,37.520049799999995
부천범박점,경기도 부천시 은성로 115,경기도,부천시,126.80349440000002,37.4744251
부천상동역점,경기도 부천시 상동로 69,경기도,부천시,126.75231969999999,37.503747100000005
부천약대점,경기도 부천시 중동로 383,경기도,부천시,126.7699258,37.514128899999996
부천역점,경기도 부천시 부천로 39번길 8,경기도,부천시,126.7831997,37.4881256
부천원미점,경기도 부천시 원미로 123-2,경기도,부천시,126.7910433,37.4937195
부천중동남부역점,경기도 부천시 경인로 72,경기도,부천시,126.7631679,37.4835592
부천중동미리내점,경기도 부천시 조마루로285번길 60,경기도,부천시,126.77522759999998,37.5000937
부천중동팰리스점,경기도 부천시 중동로 107,경기도,부천시,126.76596310000001,37.4918001
부천중동포도점,경기도 부천시 소향로 119,경기도,부천시,126.76126940000002,37.502567600000006
부평역점,인천광역시 부평구 광장로 34,인천광역시,부평구,126.72447109999999,37.490959000000004
북가좌점,서울특별시 서대문구 응암로 69,서울특별시,서대문구,126.91071880000001,37.5794092
북수원점,경기도 수원시 장안구 송원로 81,경기도,수원시,127.00922890000001,37.302136700000005
분당미금점,경기도 성남시 분당구 성남대로 165,경기도,성남시,127.10833090000001,37.350747999999996
분당서현점,경기도 성남시 분당구 중앙공원로39번길 7,경기도,성남시,127.127983,37.3814323
분당수내점,경기도 성남시 분당구 내정로173번길 11,경기도,성남시,127.11816370000001,37.3749847
분당아름점,경기도 성남시 분당구 야탑1동 533-4,경기도,성남시,127.13851399999999,37.412017999999996
분당이매점,경기도 성남시 분당구 양현로94번길 7,경기도,성남시,127.1254152,37.3918473
분당장안타운점,경기도 성남시 분당구 분당로263번길 39,경기도,성남시,127.14017700000001,37.3720189
분당정자1점,경기도 성남시 분당구 성남대로 389,경기도,성남시,127.10750729999998,37.370856599999996
분당정자점,경기도 성남시 분당구 내정로 52,경기도,성남시,127.1151318,37.3647963
분당푸른점,경기도 성남시 분당구 돌마로366번길 42,경기도,성남시,127.1267477,37.367179
불광2동점,서울특별시 은평구 연서로 283-1,서울특별시,은평구,126.9257043,37.62132929999999
불광점,서울특별시 은평구 통일로 741-1,서울특별시,은평구,126.92848300000001,37.611573
사가정점,서울특별시 중랑구 면목로 338,서울특별시,중랑구,127.08882460000001,37.5821792
사천읍점,경상남도 사천시 사천읍 평화리 157-7 ,경상남도,사천시,128.086997,35.08294179999999
산곡경남점,인천광역시 부평구 안남로222번길 30,인천광역시,부평구,126.7097196,37.5017151
산본궁내점,경기도 군포시 고산로 529,경기도,군포시,126.9225128,37.360958000000004
산본시장점,경기도 군포시 금산로 109,경기도,군포시,126.9358114,37.3716024
산청점,경상남도 산청군 산청읍 옥산리 161-13 ,경상남도,산청군,127.87538729999999,35.414330799999995
삼양점,서울특별시 강북구 솔샘로 219,서울특별시,강북구,127.01711940000001,37.6201698
삽교점,충청남도 예산군 삽교읍 두리1구 803-214 ,충청남도,예산군,126.74287530000001,36.7040915
상계보람점,서울특별시 노원구 한글비석로 466,서울특별시,노원구,127.06643940000001,37.664572899999996
상계삿갓점,서울특별시 노원구 덕릉로 699,서울특별시,노원구,127.0752382,37.6600972
상동라일락점,경기도 부천시 도약로 39,경기도,부천시,126.75385490000001,37.5125239
상봉점,서울특별시 중랑구 망우로32길 20,서울특별시,중랑구,127.07649140000001,37.5929988
상수역점,서울특별시 마포구 독막로 94,서울특별시,마포구,126.9239155,37.5475699
상암점,서울특별시 마포구 월드컵북로 324,서울특별시,마포구,126.89578780000001,37.5753908
상왕십리역점,서울특별시 성동구 왕십리로 357,서울특별시,성동구,127.030222,37.5638346
상주점,경상북도 상주시 서성동 121-8 ,경상북도,상주시,128.15945349999998,36.4167846
서남병원점,서울특별시 양천구 신정이펜1로 50,서울특별시,양천구,126.83110649999999,37.5125344
서대문냉천점,서울특별시 서대문구 통일로 157-6,서울특별시,서대문구,126.96401440000001,37.5680135
서산대산점,충청남도 서산시 대산읍 대산리 136 ,충청남도,서산시,126.43565829999999,36.936226500000004
서산석림점,충청남도 서산시 석림동 475,충청남도,서산시,126.4650436,36.7707554
서산중앙점,충청남도 서산시 동문동 904-5 광장근방,충청남도,서산시,126.45531650000001,36.7814018
서산지곡점,충청남도 서산시 지곡면 무장리 936,충청남도,서산시,126.4451205,36.8446508
서산해미점,충청남도 서산시 해미면 읍리 298-6 ,충청남도,서산시,126.54465900000001,36.713264
서울대입구역점,서울특별시 관악구 관악로 157,서울특별시,관악구,126.9521068,37.4794732
서울성대점,서울특별시 종로구 성균관로 14,서울특별시,종로구,126.9978072,37.5841849
서울한양대역점,서울특별시 성동구 왕십리로 217-1,서울특별시,성동구,127.0427538,37.55688320000001
서천점,충청남도 서천군 서천읍 군사리 642-6 ,충청남도,서천군,126.6906355,36.0768893
서초3동서울고점,서울특별시 서초구 효령로 226,서울특별시,서초구,127.00868329999999,37.483378200000004
석계점,서울특별시 노원구 동일로 1279,서울특별시,노원구,127.0640186,37.6430723
석관점,서울특별시 성북구 돌곶이로 60,서울특별시,성북구,127.05898490000001,37.6091743
석수전화국점,경기도 안양시 만안구 안양로 465,경기도,안양시,126.9106817,37.4113112
석촌점,서울특별시 송파구 송파대로 447,서울특별시,송파구,127.1056992,37.5063633
선유도역점,서울특별시 영등포구 양평로 112,서울특별시,영등포구,126.89526240000001,37.5373783
성남도촌점,경기도 성남시 중원구 도촌남로 33,경기도,성남시,127.1511575,37.4145513
성남복정점,경기도 성남시 수정구 복정로 43,경기도,성남시,127.12696799999999,37.456791700000004
성남산성점,경기도 성남시 수정구 수정로 354,경기도,성남시,127.1501003,37.4551955
성남상대원점,경기도 성남시 중원구 희망로 339-1,경기도,성남시,127.157979,37.436084
성남신구대점,경기도 성남시 중원구 광명로 319,경기도,성남시,127.1613365,37.4453123
성남은행점,경기도 성남시 수정구 산성대로 521,경기도,성남시,127.16359080000001,37.4577795
성남중앙점,경기도 성남시 수정구 수정로 106,경기도,성남시,127.1322097,37.4407268
성남중원점,경기도 성남시 중원구 제일로35번길 1,경기도,성남시,127.1365466,37.43008820000001
성남태평점,경기도 성남시 수정구 시민로 227,경기도,성남시,127.1405348,37.4480732
성북점,서울특별시 성북구 성북로 24-1,서울특별시,성북구,127.00452320000001,37.590267499999996
성산점,서울특별시 마포구 월드컵북로 224,서울특별시,마포구,126.9045075,37.5698817
성수쇼핑센타점,서울특별시 성동구 아차산로7길 22,서울특별시,성동구,127.0550709,37.5470566
성수점,서울특별시 성동구 성덕정길 78,서울특별시,성동구,127.05210770000001,37.537848
성신여대점,서울특별시 성북구 보문로34길 77,서울특별시,성북구,127.0195084,37.5914004
성주점,경상북도 성주군 성주읍 경산리 3-58 ,경상북도,성주군,128.2868831,35.9179701
세종대점,서울특별시 광진구 군자로 82,서울특별시,광진구,127.0711914,37.550395200000004
소하시흥대교점,경기도 광명시 금하로 537,경기도,광명시,126.8915719,37.45165120000001
송내로데오점,경기도 부천시 송내대로73번길 46,경기도,부천시,126.7515777,37.4905225
송탄지산점,경기도 평택시 지산2로96번길 4,경기도,평택시,127.06109550000001,37.0798451
송파1점,서울특별시 송파구 가락로 158,서울특별시,송파구,127.1132668,37.503125299999994
수락산역점,서울특별시 노원구 동일로 1649,서울특별시,노원구,127.0550645,37.675672999999996
수원고등점,경기도 수원시 팔달구 팔달로107번길 4,경기도,수원시,127.00312790000001,37.278421200000004
수원고색점,경기도 수원시 권선구 고색로 8,경기도,수원시,126.97836000000001,37.24756370000001
수원곡반정점,경기도 수원시 권선구 곡선로50번길 45-4,경기도,수원시,127.02887220000001,37.23670429999999
수원권선시장점,경기도 수원시 권선구 권광로 55,경기도,수원시,127.0263611,37.254897899999996
수원권선점,경기도 수원시 권선구 동수원로 218-39,경기도,수원시,127.03596359999999,37.24876
수원남문점,경기도 수원시 팔달구 팔달문로 1,경기도,수원시,127.01743219999999,37.277676899999996
수원남부경찰서점,경기도 수원시 영통구 매봉로35번길 1,경기도,수원시,127.0526445,37.2710962
수원대점,경기도 화성시 봉담읍 와우안길 42,경기도,화성시,126.97689550000001,37.215669899999995
수원동신점,경기도 수원시 장안구 만석로159번길 39,경기도,수원시,126.9968182,37.3031764
수원망포점,경기도 수원시 영통구 영통로153번길 6,경기도,수원시,127.0550075,37.2414405
수원매탄점,경기도 수원시 영통구 인계로 220,경기도,수원시,127.04139199999999,37.2648839
수원성대점,경기도 수원시 장안구 서부로2123번길 32,경기도,수원시,126.9694309,37.298508899999995
수원세류점,경기도 수원시 권선구 세지로 93,경기도,수원시,127.01831259999999,37.26024879999999
수원역점,경기도 수원시 팔달구 덕영대로943번길 20,경기도,수원시,127.00275400000001,37.2653216
수원연무점,경기도 수원시 장안구 창훈로 3-2,경기도,수원시,127.03081759999999,37.2928254
수원영통점,경기도 수원시 영통구 덕영대로1555번길 16,경기도,수원시,127.0615595,37.2467666
수원영화점,경기도 수원시 장안구 수성로262번길 3,경기도,수원시,127.0014784,37.2898835
수원오목천점,경기도 수원시 권선구 삼천병마로 1598,경기도,수원시,126.96341149999999,37.245251
수원우만점,경기도 수원시 팔달구 권광로 373,경기도,수원시,127.03406979999998,37.2808409
수원율현점,경기도 수원시 팔달구 일월로22번길 22-5,경기도,수원시,126.9813727,37.285819399999994
수원정자점,경기도 수원시 장안구 대평로 86,경기도,수원시,126.9932632,37.295943799999996
수원천천점,경기도 수원시 장안구 덕영대로535번길 34,경기도,수원시,126.982082,37.29710479999999
수원탑동점,경기도 수원시 권선구 탑동로 57번길 2,경기도,수원시,126.97364669999999,37.2740989
수원호매실점,경기도 수원시 권선구 금호로 28,경기도,수원시,126.95471529999999,37.2686276
수원화서점,경기도 수원시 팔달구 덕영대로 695,경기도,수원시,126.9902852,37.2847226
수원황골점,경기도 수원시 영통구 봉영로1744번길 11,경기도,수원시,127.0836767,37.2664532
수유광산점,서울특별시 강북구 노해로 87,서울특별시,강북구,127.0223176,37.6435898
수유화계사점,서울특별시 강북구 덕릉로 14,서울특별시,강북구,127.0152168,37.6338463
수지신봉점,경기도 용인시 수지구 신봉2로 2,경기도,용인시,127.07806140000001,37.32318720000001
순천금당점,전라남도 순천시 연향동 1505-4 ,전라남도,순천시,127.52616670000002,34.9456305
순천신대점,전라남도 순천시 해룡면 신대리 1998-4,전라남도,순천시,127.55488899999999,34.932521200000004
순천연향점,전라남도 순천시 연향동 1384-3 부영1차아파트 상가,전라남도,순천시,127.52132390000001,34.9458975
순천오천점,전라남도 순천시 오천동 964-2,전라남도,순천시,127.49455060000001,34.933246000000004
순천왕지점,전라남도 순천시 조례동 1834-1 ,전라남도,순천시,127.5319172,34.9533841
순천용당점,전라남도 순천시 삼산로 93,전라남도,순천시,127.49321570000001,34.9731969
순천조례점,전라남도 순천시 조례동 957-1,전라남도,순천시,127.51783329999999,34.961214
순천중앙점,전라남도 순천시 중앙동 57-7 ,전라남도,순천시,127.4843756,34.9568315
숭실대점,서울특별시 동작구 상도로 357,서울특별시,동작구,126.95356399999999,37.497006
시립대점,서울특별시 동대문구 전농로 209,서울특별시,동대문구,127.05375330000001,37.582874
시흥4동점,서울특별시 금천구 독산로 170,서울특별시,금천구,126.90442759999998,37.462495000000004
시흥거모점,경기도 시흥시 군자로 523,경기도,시흥시,126.78555549999999,37.343494899999996
시흥능곡점,경기도 시흥시 승지로 54,경기도,시흥시,126.81036129999998,37.3687316
시흥대야점,경기도 시흥시 비둘기공원7길 39,경기도,시흥시,126.7924068,37.442493299999995
시흥벽산점,서울특별시 금천구 금하로 757,서울특별시,금천구,126.9138348,37.4501854
시흥사거리점,서울특별시 금천구 금하로 630,서울특별시,금천구,126.90113429999998,37.4546674
시흥옥구점,경기도 시흥시 옥구상가2길 4,경기도,시흥시,126.7239898,37.3539121
시흥장곡점,경기도 시흥시 진말로9번길 2,경기도,시흥시,126.7852551,37.378477000000004
시흥정왕점,경기도 시흥시 함송로 23,경기도,시흥시,126.7310235,37.3635226
신금호역점,서울특별시 성동구 금호로 145 1층,서울특별시,성동구,127.02055379999999,37.553976
신길점,서울특별시 영등포구 영등포로 365,서울특별시,영등포구,126.91910379999999,37.5143484
신내점,서울특별시 중랑구 봉화산로 218,서울특별시,중랑구,127.0970527,37.607383399999996
신당역점,서울특별시 중구 퇴계로86길 6,서울특별시,중구,127.0196128,37.5652743
신대방삼거리역점,서울특별시 동작구 보라매로 93,서울특별시,동작구,126.9277226,37.4977822
신대방역점,서울특별시 관악구 난곡로 354,서울특별시,관악구,126.9140577,37.485515299999996
신대방점,서울특별시 영등포구 여의대방로 25,서울특별시,영등포구,126.9103685,37.495069
신도림점,서울특별시 구로구 경인로65길 44,서울특별시,구로구,126.88520679999999,37.5095917
신림6동점,서울특별시 관악구 신림로 141,서울특별시,관악구,126.9334537,37.4716121
신림9동점,서울특별시 관악구 대학6길 2,서울특별시,관악구,126.93758340000001,37.4689817
신림역점,서울특별시 관악구 남부순환로 1594-1,서울특별시,관악구,126.9278797,37.4837833
신만덕점,부산광역시 북구 만덕3동 916-8번지 ,부산광역시,북구,129.0293138,35.210839799999995
신방화역점,서울특별시 강서구 마곡서1로 100,서울특별시,강서구,126.8200808,37.566035
신설동역점,서울특별시 동대문구 왕산로 11,서울특별시,동대문구,127.02473090000001,37.576416200000004
신수점,서울특별시 마포구 토정로 218,서울특별시,마포구,126.9350643,37.544775099999995
신월1점,서울특별시 양천구 화곡로 84,서울특별시,양천구,126.8312135,37.5393241
신월2동점,서울특별시 양천구 오목로 77,서울특별시,양천구,126.8461062,37.5231196
신월7동점,서울특별시 양천구 지양로 75,서울특별시,양천구,126.8333496,37.5221846
신정역점,서울특별시 양천구 오목로 194,서울특별시,양천구,126.8589307,37.5252076
신정점,서울특별시 양천구 목동남로4길 6-23,서울특별시,양천구,126.8655747,37.507442
신창시장점,서울특별시 도봉구 덕릉로 242,서울특별시,도봉구,127.0388785,37.6391785
신풍역점,서울특별시 영등포구 신풍로 1,서울특별시,영등포구,126.9062946,37.5005379
쌍문역점,서울특별시 도봉구 도봉로109길 12,서울특별시,도봉구,127.03272120000001,37.6468732
아산둔포점,충청남도 아산시 둔포면 둔포리 477-6 ,충청남도,아산시,127.03894650000001,36.93057329999999
아산모산점,충청남도 아산시 배방면 공수리 262 황금프라자 114 ,충청남도,아산시,127.05525690000002,36.7721162
아산모종점,충청남도 아산시 모종동 426-5 복영빌딩 ,충청남도,아산시,127.0184666,36.7818858
아산신도시점,충청남도 아산시 배방읍 장재리 1513 ,충청남도,아산시,127.09123600000001,36.7885027
아산신창점,충청남도 아산시 신창면 행목로 218,충청남도,아산시,126.95440320000002,36.7830632
아산온양온천점,충청남도 아산시 온천동 86-24 ,충청남도,아산시,127.0044189,36.781499
아산용화점,충청남도 아산시 용화동 653번지 102호 ,충청남도,아산시,126.99739709999999,36.7757235
아산음봉포스코점,충청남도 아산시 음봉면 동암리,충청남도,아산시,127.0569,36.846574
아산탕정점,충청남도 아산시 탕정면 탕정면로 37 트라팰리스 상가 1층,충청남도,아산시,127.0616723,36.8008436
아산테크노밸리점,충청남도 아산시 둔포면 아산밸리중앙로 58-5,충청남도,아산시,127.05590120000001,36.9229653
아주대점,경기도 수원시 영통구 아주로 36,경기도,수원시,127.0441023,37.2780408
아차산역점,서울특별시 광진구 자양로 294,서울특별시,광진구,127.09235520000001,37.5517662
안동옥동점,경상북도 안동시 옥동 734,경상북도,안동시,128.69999620000002,36.566229299999996
안면점,충청남도 태안군 안면읍 승언리 1137,충청남도,태안군,126.3454514,36.5167576
안산1점,경기도 안산시 상록구 안산대학로 98,경기도,안산시,126.86897579999999,37.3091016
안산건건점,경기도 안산시 상록구 건건로 6,경기도,안산시,126.903998,37.30792
안산본오점,경기도 안산시 상록구 석호로 268,경기도,안산시,126.860206,37.2934566
안산부곡점,경기도 안산시 상록구 부곡로 55,경기도,안산시,126.86006770000002,37.3274351
안산사2동점,경기도 안산시 상록구 감골2로 12,경기도,안산시,126.8552105,37.2914881
안산선부점,경기도 안산시 단원구 선부로 166,경기도,안산시,126.8125074,37.339983000000004
안산수암점,경기도 안산시 상록구 수인로 2010,경기도,안산시,126.8759764,37.3625839
안산원곡점,경기도 안산시 단원구 원선1로 61,경기도,안산시,126.8044133,37.3292583
안산월피점,경기도 안산시 상록구 부루지길 6,경기도,안산시,126.85078909999999,37.3282021
안산한대앞역점,경기도 안산시 상록구 광덕1로 386,경기도,안산시,126.8524248,37.308468
안산한양대점,경기도 안산시 상록구 한양대학로 38,경기도,안산시,126.8393866,37.301113799999996
안성공도점,경기도 안성시 공도읍 공도로 91,경기도,안성시,127.17110359999998,37.000104799999995
안성금산교차로점,경기도 안성시 안성맞춤대로 1088,경기도,안성시,127.2706092,37.0104908
안성죽산점,경기도 안성시 죽산면 남부길 75,경기도,안성시,127.4257557,37.0756937
안암점,서울특별시 동대문구 안암로 68,서울특별시,동대문구,127.029099,37.5821441
안양갈산점,경기도 안양시 동안구 갈산로 35,경기도,안양시,126.9614861,37.375151200000005
안양관양점,경기도 안양시 동안구 관평로 324,경기도,안양시,126.9577517,37.4049312
안양박달점,경기도 안양시 만안구 박달로 471,경기도,안양시,126.90490220000001,37.40255
안양비산점,경기도 안양시 동안구 비산로 57,경기도,안양시,126.93165800000001,37.4018661
안양성결대점,경기도 안양시 만안구 성결대학로 28,경기도,안양시,126.93109340000001,37.3827745
안양인덕원점,경기도 안양시 동안구 흥안대로456번길 11,경기도,안양시,126.9764618,37.3947619
안양일번가점,경기도 안양시 만안구 만안로223번길 13,경기도,안양시,126.92195020000001,37.400591799999994
안양중앙시장점,경기도 안양시 만안구 장내로 86,경기도,안양시,126.9182696,37.3950565
안양평촌도서관점,경기도 안양시 동안구 관평로 227,경기도,안양시,126.95781470000001,37.396762100000004
안양평촌점,경기도 안양시 동안구 평촌대로 142,경기도,안양시,126.9598976,37.3849942
안양호계점,경기도 안양시 동안구 경수대로 472,경기도,안양시,126.95925279999999,37.3649754
암사롯데캐슬점,서울특별시 강동구 고덕로 105,서울특별시,강동구,127.1371919,37.5550033
암사점,서울특별시 강동구 올림픽로 787,서울특별시,강동구,127.1277494,37.5514771
약수점,서울특별시 중구 다산로 136,서울특별시,중구,127.01153490000002,37.5559056
양구점,강원도 양구군 양구읍 사명길 118-17,강원도,양구군,127.98879840000002,38.10787070000001
양산남부점,경상남도 양산시 남부동 ,경상남도,양산시,129.0304,35.3343
양산물금역점,"경상남도 양산시 물금읍 물금리 800-1, 상가동 514동 103호",경상남도,양산시,128.98952590000002,35.3123735
양산웅상점,경상남도 양산시 삼호동 871-5 ,경상남도,양산시,129.17290490000002,35.407607399999996
양산평산점,경상남도 양산시 평산동 94-5,경상남도,양산시,129.1516572,35.381904
양양점,강원도 양양군 양양읍 양양로 96,강원도,양양군,128.6189592,38.0740938
양재점,서울특별시 서초구 남부순환로356길 33,서울특별시,서초구,127.0382388,37.4835685
양주고읍점,경기도 양주시 고읍남로 24,경기도,양주시,127.0789332,37.7944519
양주덕정점,경기도 양주시 고암길 306-77,경기도,양주시,127.0686085,37.8367622
양주백석점,경기도 양주시 백석읍 양주산성로 550,경기도,양주시,126.992806,37.7871286
양주삼숭점,경기도 양주시 삼숭로38번길 106,경기도,양주시,127.1068939,37.7958408
양주옥정점,경기도 양주시 옥정동로7가길 30,경기도,양주시,127.0940811,37.8201974
양평군청점,경기도 양평군 양평읍 양평시장길27번길 11,경기도,양평군,127.48989250000001,37.490192799999996
양평용문점,경기도 양평군 용문면 용문로 344,경기도,양평군,127.5924466,37.483414200000006
양평점,서울특별시 영등포구 선유서로 67,서울특별시,영등포구,126.8851642,37.521835100000004
엄궁점,부산광역시 사상구 엄궁동 726 엄궁롯데APT주상가 106호 ,부산광역시,사상구,128.97568370000002,35.1269649
여수교동점,전라남도 여수시 교동 397,전라남도,여수시,127.7327645,34.740862299999996
여수국동점,전라남도 여수시 국동 438,전라남도,여수시,127.7158094,34.7306162
여수무선점,전라남도 여수시 선원동 1245-6 ,전라남도,여수시,127.65125049999999,34.7724729
여수미평점,전라남도 여수시 미평동 758-3,전라남도,여수시,127.7025261,34.7723319
여수봉계점,전라남도 여수시 봉계동 682-19,전라남도,여수시,127.66871699999999,34.783615999999995
여수신기점,전라남도 여수시 신기동 43-10,전라남도,여수시,127.6736293,34.7615163
여수여문점,전라남도 여수시 문수동 180-1 ,전라남도,여수시,127.70104609999999,34.752576899999994
여수죽림점,전라남도 여수시 소라면 죽림로 31,전라남도,여수시,127.63954340000001,34.7636125
여수학동점,전라남도 여수시 학동 59번지 103호 ,전라남도,여수시,127.6562712,34.7633691
여의도점,서울특별시 영등포구 국제금융로7길 22,서울특별시,영등포구,126.9330807,37.5232563
여주가남점,경기도 여주시 가남읍 태평로 23-2,경기도,여주시,127.5463277,37.2029421
여주점,경기도 여주시 세종로 75,경기도,여주시,127.63564479999998,37.2911538
역곡점,경기도 부천시 부일로 747,경기도,부천시,126.81271059999999,37.48642879999999
역삼1동점,서울특별시 강남구 역삼로 145,서울특별시,강남구,127.035234,37.4947741
역촌점,서울특별시 은평구 갈현로 82,서울특별시,은평구,126.9106902,37.6052717
연천전곡점,경기도 연천군 전곡읍 전곡로 145-1,경기도,연천군,127.06857520000001,38.0251804
연희점,서울특별시 서대문구 연희로 82,서울특별시,서대문구,126.930273,37.565215
염창점,서울특별시 강서구 양천로 696,서울특별시,강서구,126.87307849999999,37.5499909
영광점,전라남도 영광군 영광읍 도동리168-6,전라남도,영광군,126.51205470000001,35.274007899999994
영등포구청역점,서울특별시 영등포구 당산로 108,서울특별시,영등포구,126.8965101,37.5242941
영등포남부역점,서울특별시 영등포구 영신로19길 16,서울특별시,영등포구,126.9060004,37.5140547
영월점,강원도 영월군 영월읍 중앙로 22,강원도,영월군,128.4662086,37.1834157
영천1호점,경상북도 영천시 문외동 49-2 104호 ,경상북도,영천시,128.9403829,35.9725153
예산점,충청남도 예산군 예산읍 주교리 214-12 ,충청남도,예산군,126.83138459999999,36.6859584
오남점,경기도 남양주시 오남읍 진건오남로 519,경기도,남양주시,127.20977520000001,37.6802635
오류2동점,서울특별시 구로구 오류로 60,서울특별시,구로구,126.84034040000002,37.48999439999999
오산갈곶점,경기도 오산시 오산로 79,경기도,오산시,127.0688433,37.1339638
오산궐동점,경기도 오산시 궐리사로 77,경기도,오산시,127.0607797,37.1586418
오산금암마을점,경기도 오산시 수청로 209,경기도,오산시,127.04383440000001,37.1761273
오산내삼미점,경기도 오산시 내삼미로 109,경기도,오산시,127.06427450000001,37.17228720000001
오산누읍점,경기도 오산시 누읍로 17,경기도,오산시,127.0498668,37.142472
오산대원점,경기도 오산시 경기대로 153,경기도,오산시,127.07311770000001,37.138310499999996
오산운암뜰점,경기도 오산시 대원로 65,경기도,오산시,127.0758774,37.146571
오산운천초점,경기도 오산시 운암로 121,경기도,오산시,127.07840039999999,37.1568579
옥산점,충청북도 청원군 옥산면 오산리 211-16 ,충청북도,청원군,127.37425400000001,36.6652282
옥천점,충청북도 옥천군 옥천읍 금구리 7-7 ,충청북도,옥천군,127.5685774,36.3016235
와수리점,강원도 철원군 서면 와수로181번길 25-16,강원도,철원군,127.43787579999999,38.2394021
완주봉동점,전라북도 완주군 봉동읍 둔산리 877-7 ,전라북도,완주군,127.12615590000001,35.9620946
완주삼례점,전라북도 완주군 삼례읍 후정리 18-1 ,전라북도,완주군,127.0693632,35.9139735
외대앞역점,서울특별시 동대문구 휘경로 14,서울특별시,동대문구,127.0615439,37.5957081
용답점,서울특별시 성동구 용답중앙길 16,서울특별시,성동구,127.04973030000001,37.567311
용두점,서울특별시 동대문구 고산자로29길 6,서울특별시,동대문구,127.0378117,37.5762849
용마산역점,서울특별시 중랑구 면목로 252,서울특별시,중랑구,127.08566129999998,37.575355
용문시장점,서울특별시 용산구 효창원로 97,서울특별시,용산구,126.9597588,37.537395000000004
용산해방촌점,서울특별시 용산구 신흥로 86,서울특별시,용산구,126.9859491,37.545639
용인금화점,경기도 용인시 기흥구 금화로 107,경기도,용인시,127.10623249999999,37.2662158
용인동백점,경기도 용인시 기흥구 동백8로 90,경기도,용인시,127.16016129999998,37.2831463
용인동천점,경기도 용인시 수지구 동천동 174-17,경기도,용인시,127.09625009999999,37.3402576
용인둔전점,경기도 용인시 처인구 포곡읍 포곡로 114,경기도,용인시,127.2180426,37.26946289999999
용인마북점,경기도 용인시 기흥구 마북로 135,경기도,용인시,127.1220503,37.302572600000005
용인마평점,경기도 용인시 처인구 고림로 22,경기도,용인시,127.21487549999999,37.2356661
용인모현점,경기도 용인시 처인구 모현읍 백옥대로 2391,경기도,용인시,127.2493029,37.337117600000006
용인백암점,경기도 용인시 처인구 백암면 백암로 199,경기도,용인시,127.3749612,37.164260299999995
용인보라점,경기도 용인시 기흥구 사은로126번길 10,경기도,용인시,127.11741840000002,37.2527994
용인상하점,경기도 용인시 기흥구 중부대로788번길 2,경기도,용인시,127.1423493,37.2582809
용인상현점,경기도 용인시 수지구 만현로 102,경기도,용인시,127.0846237,37.3073583
용인새천년점,경기도 용인시 기흥구 새천년로26번길 4,경기도,용인시,127.1119165,37.2887968
용인서천점,경기도 용인시 기흥구 서천로127번길 3-3,경기도,용인시,127.07251000000001,37.2368365
용인시청점,경기도 용인시 처인구 중부대로 1154,경기도,용인시,127.17319690000001,37.2393888
용인양지점,경기도 용인시 처인구 양지면 양지로 162,경기도,용인시,127.2862352,37.2341292
용인어정역점,경기도 용인시 기흥구 어정로 139,경기도,용인시,127.1448825,37.2758516
용인언남점,경기도 용인시 기흥구 구성로 103,경기도,용인시,127.1207649,37.2937877
용인역북점,경기도 용인시 처인구 역북동 760,경기도,용인시,127.18773759999999,37.2309501
용인영덕점,경기도 용인시 기흥구 덕영대로2077번길 16,경기도,용인시,127.0966571,37.2681902
용인오리역벽산점,경기도 용인시 수지구 용구대로2801번길 7,경기도,용인시,127.10799170000001,37.335278
용인전대리점,경기도 용인시 처인구 포곡읍 전대로 66,경기도,용인시,127.21865220000001,37.284319700000005
용인죽전새터점,경기도 용인시 수지구 현암로 121,경기도,용인시,127.12284240000001,37.331975899999996
용인죽전점,경기도 용인시 수지구 대지로 30,경기도,용인시,127.11336329999999,37.3275326
용인천리점,경기도 용인시 처인구 이동읍 백옥대로 603,경기도,용인시,127.2063264,37.190583399999994
용인청덕점,경기도 용인시 기흥구 구성3로 37,경기도,용인시,127.1491527,37.2957208
용인한보라점,경기도 용인시 기흥구 한보라1로64번길 2,경기도,용인시,127.1072084,37.250218100000005
용인흥덕점,경기도 용인시 기흥구 흥덕2로 115,경기도,용인시,127.0738037,37.2778405
용현5동점,인천광역시 남구 낙섬중로 13,인천광역시,남구,126.63582,37.4499184
우면점,서울특별시 서초구 바우뫼로7길 16,서울특별시,서초구,127.0251114,37.4710842
운정가람마을점,경기도 파주시 교하읍 와동리 교하신도시F6-5외1필지해솔프라자103호,경기도,파주시,126.75089399999999,37.732847
울산남외점,울산광역시 울산 중구 남외동 510-1,울산광역시,울산,129.35083999999998,35.565211
울산다운점,울산광역시 중구 다운동 549-6 ,울산광역시,중구,129.2723663,35.55808270000001
울산달천점,"울산광역시 북구 달천동1-5,달천아이파크1차상가B-115 ",울산광역시,북구,129.3306021,35.6352425
울산매곡점,울산광역시 북구 매곡동 815-26,울산광역시,북구,129.3580925,35.642855100000006
울산무거점,울산광역시 남구 무거동 847-13,울산광역시,남구,129.2588198,35.546893
울산반구홈플러스점,울산광역시 중구 반구2동 62-4 ,울산광역시,중구,129.3360318,35.5638011
울산삼산점,울산광역시 남구 삼산동 1547 1층 ,울산광역시,남구,129.33656240000002,35.542984499999996
울산세양청구점,울산광역시 남구 삼산동 176-1,울산광역시,남구,129.3489642,35.5453765
울산언양점,울산광역시 울주군 언양읍 동부리 157-2 ,울산광역시,울주군,129.1251666,35.5651227
울산옥동점,울산광역시 남구 옥동 1403-16 ,울산광역시,남구,129.295333,35.5351703
울산유곡점,울산광역시 중구 유곡동 475-1,울산광역시,중구,129.2955928,35.560323
울산전하점,울산광역시 동구 전하동 660-1 ,울산광역시,동구,129.42297659999997,35.508781799999994
울산천상점,울산광역시 울주군 범서읍 천상리 329-1,울산광역시,울주군,129.2271392,35.5629567
울산태화점,울산광역시 중구 태화동 419-10 ,울산광역시,중구,129.29605719999998,35.552306
울산호계점,울산광역시 북구 호계동 250-3 1층 ,울산광역시,북구,129.3518128,35.6306912
울산화봉점,울산광역시 울산 북구 화봉동 1463,울산광역시,울산,129.365846,35.595253
원주단계점,강원도 원주시 백간길 81,강원도,원주시,127.9321125,37.3524821
원주단구점,강원도 원주시 단구로 404,강원도,원주시,127.9550058,37.3208903
원주명륜점,강원도 원주시 예술관길 7,강원도,원주시,127.94374209999998,37.3341048
원주무실점,강원도 원주시 시청로 84,강원도,원주시,127.92805290000001,37.336363299999995
원주봉산점,강원도 원주시 행구로 68,강원도,원주시,127.96475,37.3415434
원주우산점,강원도 원주시 우산로 68,강원도,원주시,127.93702340000002,37.3695776
원주일산점,강원도 원주시 무실로 148,강원도,원주시,127.9413615,37.3425704
원주태장점,강원도 원주시 흥양로 48-1,강원도,원주시,127.9525134,37.382646
원주혁신도시점,강원도 원주시 입춘로 110,강원도,원주시,127.9816729,37.3234153
원주흥업점,강원도 원주시 흥업면 남원로 70,강원도,원주시,127.9202081,37.302078200000004
월계점,서울특별시 노원구 월계로55길 16,서울특별시,노원구,127.061027,37.6323576
월곡점,서울특별시 성북구 오패산로 46,서울특별시,성북구,127.03872150000001,37.607069200000005
월곶점,경기도 시흥시 월곶중앙로 58,경기도,시흥시,126.73898940000001,37.388938700000004
유구점,충청남도 공주시 유구읍 석남리 356 105호 ,충청남도,공주시,126.9511182,36.5501412
은천점,서울특별시 관악구 은천로 38-1,서울특별시,관악구,126.93958710000001,37.4860597
은평뉴타운2지구점,서울특별시 은평구 진관2로 90,서울특별시,은평구,126.9272865,37.6332758
은평뉴타운점,서울특별시 은평구 진관4로 47,서울특별시,은평구,126.92636350000001,37.64621339999999
은평신사점,서울특별시 은평구 신사동 41-14,서울특별시,은평구,126.9088442,37.595620200000006
음성점,충청북도 음성군 음성읍 읍내리 536-8 ,충청북도,음성군,127.69006170000002,36.9340734
응암오거리점,서울특별시 은평구 가좌로 237,서울특별시,은평구,126.91622450000001,37.5906542
응암점,서울특별시 은평구 진흥로 29,서울특별시,은평구,126.9187462,37.600593599999996
의왕갈뫼점,경기도 의왕시 갈미2로 40,경기도,의왕시,126.9714399,37.379456700000006
의왕고천점,경기도 의왕시 전주남이길 8,경기도,의왕시,126.97555109999999,37.3504088
의왕내손점,경기도 의왕시 내손중앙로 37-3,경기도,의왕시,126.9799551,37.387015500000004
의왕부곡점,경기도 의왕시 부곡중앙로 21,경기도,의왕시,126.95133030000001,37.3212028
의왕오전점,경기도 의왕시 원골로 8,경기도,의왕시,126.96746100000001,37.3582652
의왕청계점,경기도 의왕시 청계1로 29,경기도,의왕시,126.998379,37.3917877
의정부가능점,경기도 의정부시 가능로 50,경기도,의정부시,127.03670109999999,37.7465825
의정부금오점,경기도 의정부시 부용로 105,경기도,의정부시,127.0693544,37.751293700000005
의정부녹양점,경기도 의정부시 녹양로 64,경기도,의정부시,127.03323799999998,37.75675379999999
의정부망월사점,경기도 의정부시 평화로244번길 25,경기도,의정부시,127.04771029999999,37.7139544
의정부민락점,경기도 의정부시 용현로 144,경기도,의정부시,127.09197169999999,37.740742499999996
의정부신곡점,경기도 의정부시 추동로 45,경기도,의정부시,127.058375,37.7453846
의정부용현점,경기도 의정부시 오목로18번길 10,경기도,의정부시,127.08563190000001,37.7323016
의정부장암점,경기도 의정부시 동일로 458,경기도,의정부시,127.05976129999999,37.7292693
의정부호원점,경기도 의정부시 호동로 67,경기도,의정부시,127.04332659999999,37.7279274
이대점,서울특별시 서대문구 이화여대7길 15,서울특별시,서대문구,126.9448115,37.5586532
이천마장점,경기도 이천시 마장면 오천로 22-1,경기도,이천시,127.35109270000001,37.254402500000005
이천송정점,경기도 이천시 송정동 316-2,경기도,이천시,127.4351947,37.2958992
이천신하리점,경기도 이천시 부발읍 경충대로 2241,경기도,이천시,127.47769479999998,37.2591772
이천안흥점,경기도 이천시 영창로 306,경기도,이천시,127.4565678,37.2809799
이천창전점,경기도 이천시 서희로 67-11,경기도,이천시,127.442568,37.2818896
익산동부시장점,전라북도 익산시 마동 153-17 ,전라북도,익산시,126.9660669,35.945618100000004
익산동산점,전라북도 익산시 동산동 607-3 ,전라북도,익산시,126.9587351,35.928813899999994
익산모현점,전라북도 익산시 모현동 1가 274-14 ,전라북도,익산시,126.943547,35.9456653
익산부송점,전라북도 익산시 부송동 1038 동신APT상가 104호,전라북도,익산시,126.99139550000001,35.958834100000004
익산영등점,전라북도 익산시 영등동 766-7번지 1층 ,전라북도,익산시,126.9716875,35.9560066
익산원대점,전라북도 익산시 신동 760-7 ,전라북도,익산시,126.9538533,35.9648637
인수점,서울특별시 강북구 인수봉로 276,서울특별시,강북구,127.0111313,37.643358899999996
인제점,강원도 인제군 인제읍 인제로 207-1,강원도,인제군,128.1731571,38.0697752
인천가좌점,인천광역시 서구 원적로 75,인천광역시,서구,126.68070890000001,37.4937787
인천검암점,인천광역시 서구 승학로 494,인천광역시,서구,126.67449909999999,37.565205
인천계산역점,인천광역시 계양구 경명대로 1096,인천광역시,계양구,126.72871370000001,37.542936499999996
인천논현소래점,인천광역시 남동구 포구로 75,인천광역시,남동구,126.73576509999998,37.4050198
인천논현점,인천광역시 남동구 논고개로136번길 5-7,인천광역시,남동구,126.7242784,37.4038239
인천도화점,인천광역시 남구 석정로 303,인천광역시,남구,126.66928390000001,37.4681455
인천동춘점,인천광역시 연수구 앵고개로 266,인천광역시,연수구,126.6728031,37.407013899999995
인천마전점,인천광역시 서구 완정로 31,인천광역시,서구,126.6704469,37.5954615
인천만수3지구점,인천광역시 남동구 담방로 39,인천광역시,남동구,126.73851640000001,37.443161700000005
인천모래내시장점,인천광역시 남동구 구월남로 283,인천광역시,남동구,126.7211423,37.4522524
인천부개점,인천광역시 부평구 충선로 107,인천광역시,부평구,126.73576299999999,37.4989252
인천삼산점,인천광역시 부평구 충선로 309,인천광역시,부평구,126.73520790000002,37.5166307
인천석남점,인천광역시 서구 가정로 301-1,인천광역시,서구,126.67239040000001,37.5118701
인천송도점,인천광역시 연수구 신송로82번길 6,인천광역시,연수구,126.65735590000001,37.3934686
인천송현점,인천광역시 동구 송현로 33,인천광역시,동구,126.6356147,37.4791368
인천신기점,인천광역시 남구 인하로 272,인천광역시,남구,126.6783827,37.447888299999995
인천연수점,인천광역시 연수구 독배로40번길 48,인천광역시,연수구,126.6472658,37.4240073
인천옥련점,인천광역시 연수구 옥련동 636-1 우성A 제상가동 1층 102호 ,인천광역시,연수구,126.64713789999999,37.423718799999996
인천원당점,인천광역시 서구 원당대로 843,인천광역시,서구,126.6953726,37.5940931
인천임학역점,인천광역시 계양구 장제로 881,인천광역시,계양구,126.7388721,37.54566079999999
인천장기점,인천광역시 계양구 황어로 115,인천광역시,계양구,126.73363329999998,37.5795016
인천청라점,인천광역시 서구 청라라임로 85,인천광역시,서구,126.65171459999999,37.5351108
인천학익점,인천광역시 남구 매소홀로 470,인천광역시,남구,126.67435420000001,37.439307299999996
일산가좌점,경기도 고양시 일산서구 가좌4로 2,경기도,고양시,126.7198416,37.6861825
일산동점,경기도 고양시 일산서구 원일로 126,경기도,고양시,126.7758616,37.6848855
일산밤가시점,경기도 고양시 일산동구 일산로 449,경기도,고양시,126.776923,37.6734376
일산백마점,경기도 고양시 일산동구 일산로 213,경기도,고양시,126.7892004,37.655168100000004
일산백석점,경기도 고양시 일산동구 일산로 30,경기도,고양시,126.78674270000002,37.641465000000004
일산식사점,경기도 고양시 일산동구 위시티4로 45,경기도,고양시,126.8152001,37.6794874
일산주엽점,경기도 고양시 일산서구 주엽로 134,경기도,고양시,126.75818319999999,37.670680299999994
일산중산점,경기도 고양시 일산동구 중산로 254,경기도,고양시,126.7811307,37.6946394
일산탄현점,경기도 고양시 일산서구 일현로 56,경기도,고양시,126.76377990000002,37.6919805
일산호수마을점,경기도 고양시 일산동구 노루목로 107,경기도,고양시,126.7771875,37.6499464
일산후곡점,경기도 고양시 일산서구 일산로 542,경기도,고양시,126.7680183,37.6779202
일원점,서울특별시 강남구 양재대로55길 1,서울특별시,강남구,127.08783629999999,37.4910702
입암점,강원도 강릉시 입암로 157,강원도,강릉시,128.9183652,37.7597295
자양점,서울특별시 광진구 뚝섬로 630,서울특별시,광진구,127.07941170000001,37.5319498
잠실4단지점,서울특별시 송파구 석촌호수로 13,서울특별시,송파구,127.091321,37.507413
잠실본동점,서울특별시 송파구 백제고분로 165,서울특별시,송파구,127.0852889,37.505381299999996
잠실점,서울특별시 송파구 올림픽로35가길 9,서울특별시,송파구,127.10365800000001,37.5174066
장승배기점,서울특별시 동작구 상도로 199,서울특별시,동작구,126.9406759,37.5052805
장안홈타운점,서울특별시 동대문구 장안벚꽃로 107,서울특별시,동대문구,127.0747898,37.5694827
장위고개점,서울특별시 성북구 장위로 51,서울특별시,성북구,127.0423395,37.614167200000004
장위점,서울특별시 성북구 돌곶이로 154,서울특별시,성북구,127.05184469999999,37.6154701
장지역점,서울특별시 송파구 새말로8길 29,서울특별시,송파구,127.1269649,37.4801195
장한평역점,서울특별시 동대문구 장한로6길 4,서울특별시,동대문구,127.06644920000001,37.5637131
장호원점,경기도 이천시 장호원읍 샘재로 151,경기도,이천시,127.6291947,37.1176777
전남고흥점,전라남도 고흥군 고흥읍 남계리 674-3,전라남도,고흥군,127.28855929999999,34.6097001
전남구례점,전라남도 구례군 구례읍 봉남리 136 ,전라남도,구례군,127.46465819999999,35.206971100000004
전남나주점,전라남도 나주시 중앙동 29 ,전라남도,나주시,126.71913459999999,35.0331403
전남무안점,전라남도 무안군 무안읍 성남리 57-4 ,전라남도,무안군,126.4751081,34.989671200000004
전남벌교점,전라남도 보성군 벌교읍 벌교리 625-16 ,전라남도,보성군,127.34441909999998,34.8432343
전남화순점,전라남도 화순군 화순읍 만연리 240-8 ,전라남도,화순군,126.99127920000001,35.0606375
전북고창점,"전라북도 고창군 고창읍 읍내리 205-1, 101호 ",전라북도,고창군,126.7005919,35.434866
전북김제점,전라북도 김제시 요촌동 184-21 ,전라북도,김제시,126.8887131,35.8000268
전북대점,전라북도 전주시 덕진구 금암동 1589-1 ,전라북도,전주시,127.1393226,35.8430322
전북부안점,전라북도 부안군 봉덕리 부안읍 봉덕리 574-114 ,전라북도,부안군,126.738725,35.727394
전북임실점,전라북도 임실군 임실읍 이도리 236-1,전라북도,임실군,127.2839588,35.6148309
전주덕진구청점,전라북도 전주시 덕진구 진북동 410-15 ,전라북도,전주시,127.1361558,35.8307164
전주동산점,전라북도 전주시 덕진구 동산동 574-33 ,전라북도,전주시,127.07932450000001,35.8721141
전주삼익점,전라북도 전주시 완산구 삼천동 1가 668-6 ,전라북도,전주시,127.12574270000002,35.795622200000004
전주삼천점,전라북도 전주시 완산구 삼천동 1가 289-5 ,전라북도,전주시,127.1157668,35.795845899999996
전주서곡점,전라북도 전주시 완산구 효자동 3가 1452-2 ,전라북도,전주시,127.09848490000002,35.834697
전주서부시장점,전라북도 전주시 완산구 효자동 1가 193-2외2필지 ,전라북도,전주시,127.1272863,35.806297799999996
전주서신점,전라북도 전주시 완산구 서신동 764-2 ,전라북도,전주시,127.11314209999999,35.8329682
전주송천대명점,전라북도 전주시 덕진구 송천동 1가 833-5 ,전라북도,전주시,127.11471370000001,35.863833500000005
전주송천점,전라북도 전주시 덕진구 송천동 2가 1272 ,전라북도,전주시,127.1236998,35.866862
전주아중점,전라북도 전주시 덕진구 인후동1가 904-5 ,전라북도,전주시,127.1650852,35.8277328
전주안골점,"전라북도 전주시 덕진구 인후동1가 1029, 한신휴플러스상가 1동 101~102호",전라북도,전주시,127.1542083,35.838269200000006
전주중화산점,전라북도 전주시 완산구 중화산동 2가 744-2 ,전라북도,전주시,127.1162564,35.825142
전주평화점,전라북도 전주시 완산구 평화동2가 230-15 ,전라북도,전주시,127.1354765,35.788565000000006
전주평화초교점,전라북도 전주시 완산구 평화동1가 438-6 ,전라북도,전주시,127.13936240000001,35.798307
전주하가지구점,전라북도 전주시 덕진구 덕진동 2가 681-7,전라북도,전주시,127.11061940000002,35.84166210000001
전주혁신점,전라북도 전주시 덕진구 장동 179-1,전라북도,전주시,127.05755800000001,35.841609000000005
전주호성점,전라북도 전주시 덕진구 우아동3가 594-5 ,전라북도,전주시,127.1550368,35.8560581
전주효자점,전라북도 전주시 완산구 효자동 1가 621-12 ,전라북도,전주시,127.1150481,35.8106593
전주휴먼시아점,"전라북도 전주시 완산구 효자동 2가 1313-6,101호",전라북도,전주시,127.0970453,35.809272299999996
정릉점,서울특별시 성북구 보국문로16길 31,서울특별시,성북구,127.0091051,37.6114223
정왕본동점,경기도 시흥시 정왕천로411번길 36,경기도,시흥시,126.74888999999999,37.346300299999996
정왕아주점,경기도 시흥시 정왕신길로139번길 4,경기도,시흥시,126.73544229999999,37.3531696
정읍상동점,전라북도 정읍시 상동 320-8 ,전라북도,정읍시,126.86793030000001,35.561014
정읍수성점,전라북도 정읍시 수성동 938-2 ,전라북도,정읍시,126.8575788,35.579694399999994
제천서부점,충청북도 충북 제천시 서부동 793,충청북도,충북,128.203729,37.135109
제천신백점,충청북도 충북 제천시 신백동 215,충청북도,충북,128.228142,37.129179
제천청전사거리점,"충청북도 제천시 청전동 626-1, 덕일맨션상가11-111호",충청북도,제천시,128.216892,37.1520904
조치원신흥점,충청남도 연기군 조치원읍 신흥리 77-7 ,충청남도,연기군,127.29394270000002,36.5953271
종암점,서울특별시 성북구 종암로9길 3,서울특별시,성북구,127.03532560000001,37.5955341
중계본동점,서울특별시 노원구 한글비석로8길 20,서울특별시,노원구,127.0775878,37.6473643
중계점,서울특별시 노원구 석계로3길 21,서울특별시,노원구,127.0635145,37.6159711
중곡제일시장점,서울특별시 광진구 능동로 51번길 44,서울특별시,광진구,127.06934720000001,37.5356631
중화역점,서울특별시 중랑구 동일로 806,서울특별시,중랑구,127.0796164,37.6024646
진주금산점,경상남도 진주시 금산면 장사리 962-3,경상남도,진주시,128.1460887,35.2179481
진주초전점,경상남도 진주시 초전동 1648-6 ,경상남도,진주시,128.11551780000002,35.2036156
진주퀸즈웰가점,경상남도 진주시 평거동 1130,경상남도,진주시,128.05188429999998,35.1667256
진주해모로점,경상남도 초전동 1660-85 해모로루비채 2블럭아파트,경상남도,초전동,128.1082545,35.214347100000005
진주호탄점,경상남도 진주시 호탄동 976-2 ,경상남도,진주시,128.1099113,35.1637131
진천점,충청북도 진천군 진천읍 읍내리 140-2 ,충청북도,진천군,127.4446966,36.8574897
차관사거리점,서울특별시 강남구 봉은사로 474,서울특별시,강남구,127.05195330000001,37.5123688
창5동점,서울특별시 도봉구 해등로16길 66,서울특별시,도봉구,127.04362900000001,37.65490689999999
창동점,서울특별시 도봉구 마들로11가길 12,서울특별시,도봉구,127.048814,37.652863399999994
창원반송점,경상남도 창원시 성산구 반림동 15 노블파크주상가127호 ,경상남도,창원시,128.6694239,35.234810100000004
창원석동점,경상남도 창원시 진해구 석동 643-1 ,경상남도,창원시,128.7060237,35.1564134
천안두정점,충청남도 천안시 서북구 두정동 990번지 109호,충청남도,천안시,127.1339567,36.8355829
천안목천신계리점,충청남도 천안시 목천읍 신계리 166-7 신도브래뉴 아파트,충청남도,천안시,127.211546,36.775756
천안백석점,충청남도 천안시 서북구 백석동 872-873 대건 프라자 110호,충청남도,천안시,127.12496399999999,36.822377
천안봉명점,충청남도 천안시 서북구 쌍용동 882 ,충청남도,천안시,127.1310392,36.8073971
천안불당점,충청남도 천안시 서북구 불당동 734번지 그랜드프라자 101호,충청남도,천안시,127.1108311,36.8097443
천안삼성점,충청남도 충남 천안시 동남구 목천읍 삼성리 185-5,충청남도,충남,127.173626,36.762445
천안성거점,충청남도 천안시 성거읍 천흥리 426-1 ,충청남도,천안시,127.20145,36.873549
천안성정점,충청남도 천안시 서북구 성정동 647-9,충청남도,천안시,127.1372267,36.82371
천안성환점,충청남도 천안시 서북구 성환읍 성환리 34-4,충청남도,천안시,127.133053,36.916407
천안신방점,충청남도 천안시 동남구 신방동 87-1,충청남도,천안시,127.1241385,36.788212200000004
천안신부점,충청남도 천안시 동남구 신부동 586 ,충청남도,천안시,127.1561743,36.8228439
천안쌍용점,충청남도 천안시 서북구 쌍용동 1953 타워프라자 102호 ,충청남도,천안시,127.1190772,36.8023583
천안안서점,충청남도 천안시 동남구 안서동 226-16,충청남도,천안시,127.17668490000001,36.8305521
천안원성점,충청남도 천안시 동남구 원성동 546-18 ,충청남도,천안시,127.1592328,36.8030077
천안직산점,충청남도 천안시 직산읍 삼은리 72-53 제일프라자 109호,충청남도,천안시,127.15208899999999,36.878906
천안차암점,충청남도 천안시 서북구 차암동 436,충청남도,천안시,127.10479109999999,36.8412843
천안청수점,충청남도 천안시 동남구 구성동 314-45번지 ,충청남도,천안시,127.1593764,36.7942106
천안통정새샘초교점,충청남도 천안시 동남구 신방동 1948 ,충청남도,천안시,127.1327091,36.7702586
천왕점,서울특별시 구로구 천왕로 42,서울특별시,구로구,126.83897079999998,37.4812531
천호1동점,서울특별시 강동구 구천면로 328 102호,서울특별시,강동구,127.1360656,37.5484578
천호점,서울특별시 강동구 천호옛길 90,서울특별시,강동구,127.1259422,37.5367602
청량리점,서울특별시 동대문구 홍릉로 36,서울특별시,동대문구,127.0443943,37.5834726
청양점,충청남도 청양군 청양읍 읍내리 209-29 ,충청남도,청양군,126.8033392,36.4511761
청원강내점,충청북도 청원군 강내면 월곡리 248-2 ,충청북도,청원군,127.3639463,36.6251261
청주가경점,충청북도 청주시 흥덕구 가경동 1669 ,충청북도,청주시,127.4432585,36.61742520000001
청주금천점,충청북도 청주시 상당구 용담동 421,충청북도,청주시,127.50809509999999,36.633165000000005
청주복대점,충청북도 청주시 흥덕구 복대동 2577 ,충청북도,청주시,127.426047,36.6363349
청주봉명점,충청북도 청주시 흥덕구 봉명동 2688번지 102호 ,충청북도,청주시,127.4608529,36.64955629999999
청주분평점,충청북도 청주시 흥덕구 분평동 1249,충청북도,청주시,127.487027,36.609911
청주사직점,충청북도 청주시 흥덕구 사창동 356-14 ,충청북도,청주시,127.46585,36.631122999999995
청주사천점,충청북도 청주시 상당구 사천동 229-22 ,충청북도,청주시,127.475774,36.664689
청주산남점,충청북도 청주시 흥덕구 산남동 516,충청북도,청주시,127.464518,36.611996999999995
청주성화점,충청북도 청주시 서원구 성화동 889번지,충청북도,청주시,127.45139509999998,36.6148654
청주수곡점,충청북도 청주시 흥덕구 수곡2동 1001 세원청실apt상가 4호 ,충청북도,청주시,127.473947,36.616904999999996
청주용암점,"충청북도 청주시 상당구 용암동 2085, 110호 ",충청북도,청주시,127.5098581,36.6094653
청주용암중흥점,충청북도 청주시 상당구 용암동 2591,충청북도,청주시,127.5136498,36.619664799999995
청주운천점,충청북도 청주시 흥덕구 운천동 1364번지 ,충청북도,청주시,127.47467069999999,36.650281299999996
청주율량점,충청북도 청주시 청원구 율량동 881,충청북도,청주시,127.4892878,36.669013299999996
청주주성점,충청북도 청주시 청원구 율량동 1971,충청북도,청주시,127.4990304,36.668305
청평점,경기도 가평군 청평면 잠곡로 1 ,경기도,가평군,127.419048,37.7373014
총신대점,서울특별시 동작구 동작대로27길 28,서울특별시,동작구,126.98045159999998,37.48762070000001
춘천석사애막골점,강원도 춘천시 후석로186번길 16,강원도,춘천시,127.75407549999998,37.867297
춘천장학점,강원도 춘천시 동면 춘천로449번길 30-1,강원도,춘천시,127.75407140000002,37.8949588
춘천퇴계금호타운점,강원도 춘천시 안마산로 213,강원도,춘천시,127.7377878,37.849968200000006
춘천후평점,강원도 춘천시 후석로 299,강원도,춘천시,127.7511685,37.877805200000005
충남부여점,충청남도 부여군 부여읍 관북리 156 ,충청남도,부여군,126.9130509,36.2824089
충남태안점,충청남도 태안군 태안읍 동문리 3구 303-13번지 ,충청남도,태안군,126.3124957,36.7558098
충북영동점,충청북도 영동군 영동읍 계산리 691-10 ,충청북도,영동군,127.77536529999999,36.1737993
충북오창점,충청북도 청원군 오창읍 각리 코아루APT상가 301-1호 ,충청북도,청원군,127.426069,36.70839
충주연수점,충청북도 충주시 연수동 926-9 ,충청북도,충주시,127.93271599999999,36.986816
충주용산점,충청북도 충주시 용산동 2048 ,충청북도,충주시,127.9397592,36.9606851
통영봉평점,경상남도 통영시 봉평동 162-40,경상남도,통영시,128.41402920000002,34.8311721
퇴계원점,경기도 남양주시 퇴계원면 퇴계원로 61,경기도,남양주시,127.14230490000001,37.6522765
파주교하점,경기도 파주시 청석로 272,경기도,파주시,126.71771559999999,37.72612120000001
파주금촌점,경기도 파주시 새꽃로 62,경기도,파주시,126.7689972,37.755515700000004
파주법원리점,경기도 파주시 법원읍 술이홀로 874,경기도,파주시,126.87282330000001,37.8490403
파주해솔마을점,경기도 파주시 가온로 122,경기도,파주시,126.7460712,37.7206866
판교백현마을점,경기도 성남시 분당구 동판교로 58,경기도,성남시,127.1152273,37.3879097
판교산운마을점,경기도 성남시 분당구 운중로 128,경기도,성남시,127.07734520000001,37.391325200000004
평창진부점,강원도 평창군 진부면 진부시장뒷길 48-2,강원도,평창군,128.5587075,37.637944399999995
평택비전점,경기도 평택시 평택3로 54,경기도,평택시,127.0942872,36.9938021
평택서정점,경기도 평택시 서정역로26번길 3,경기도,평택시,127.05592790000001,37.0564739
평택세교점,경기도 평택시 세교3로 5,경기도,평택시,127.08042730000001,37.002215
평택소사벌점,경기도 평택시 만세로 1845,경기도,평택시,127.1032615,37.0040973
평택안중점,경기도 평택시 안중읍 안현로서6길 52,경기도,평택시,126.9235477,36.9847662
평택용이점,경기도 평택시 현신2길 4,경기도,평택시,127.1359929,36.9944641
평택원평점,경기도 평택시 원평로39번길 23-3,경기도,평택시,127.0837744,36.988796
평택이충점,경기도 평택시 이충로35번길 22,경기도,평택시,127.06673119999999,37.059818799999995
평택팽성점,경기도 평택시 팽성읍 부용로 27,경기도,평택시,127.0587591,36.96320789999999
평택합정점,경기도 평택시 평남로 635,경기도,평택시,127.10653130000001,36.990754100000004
포이점,서울특별시 강남구 논현로10길 30,서울특별시,강남구,127.050955,37.474993100000006
포천송우리점,경기도 포천시 소흘읍 솔모루로 88,경기도,포천시,127.1476747,37.8289856
포천점,경기도 포천시 구절초로 19,경기도,포천시,127.20245459999998,37.8957892
포항양덕점,경상북도 포항시 북구 양덕동 467-1,경상북도,포항시,129.38563059999998,36.0896655
포항원리점,경상북도 포항시 남구 오천읍 원리 932-3,경상북도,포항시,129.40452050000002,35.967770200000004
풍납점,서울특별시 송파구 토성로 65,서울특별시,송파구,127.1173696,37.52891270000001
풍덕천점,경기도 용인시 수지구 풍덕천로 107,경기도,용인시,127.09391570000001,37.3223735
하남덕풍점,경기도 하남시 신장로 169-1,경기도,하남시,127.20034229999999,37.5405302
하당우성점,전라남도 목포시 상동 886 우성상가 106호 ,전라남도,목포시,126.4218125,34.802444799999996
하동점,경상남도 하동군 하동읍 읍내리 302-18 ,경상남도,하동군,127.746775,35.0708342
한남점,서울특별시 용산구 한남대로21길 27,서울특별시,용산구,127.00646809999999,37.5336753
한성대역점,서울특별시 성북구 삼선교로 36-1,서울특별시,성북구,127.00980020000002,37.588079799999996
한세대점,경기도 군포시 고산로151번길 17,경기도,군포시,126.95590190000001,37.3473127
한울마을점,경기도 파주시 동패로 98,경기도,파주시,126.74024469999999,37.7114661
한티역점,서울특별시 강남구 선릉로 313,서울특별시,강남구,127.0519545,37.4976136
함양점,경상남도 함양군 함양읍 용평리 701-7 ,경상남도,함양군,127.7276218,35.5199112
합덕점,충청남도 당진시 합덕읍 운산리 267-15 ,충청남도,당진시,126.77321409999999,36.8086927
합정역점,서울특별시 마포구 독막로2길 6,서울특별시,마포구,126.9146252,37.5482962
해남점,전라남도 해남군 해남읍 성내리 28-4 ,전라남도,해남군,126.59832279999999,34.5718129
해운대점,부산광역시 해운대구 좌동 1328번지 영남아파트제상가 108-106 ,부산광역시,해운대구,129.1835919,35.1674435
행당점,서울특별시 성동구 행당로 75,서울특별시,성동구,127.02766329999999,37.5566615
행신서정점,경기도 고양시 덕양구 서정마을1로 4-9,경기도,고양시,126.84545379999999,37.6187798
행신점,경기도 고양시 덕양구 중앙로 554,경기도,고양시,126.83591229999999,37.62369210000001
호계도서관점,경기도 안양시 동안구 귀인로 94,경기도,안양시,126.95013780000001,37.3818595
홍성상설시장점,충청남도 홍성군 홍성읍 오관리 221-7,충청남도,홍성군,126.6643985,36.60055870000001
홍제점,서울특별시 서대문구 통일로 414,서울특별시,서대문구,126.94707050000001,37.5864867
홍천점,강원도 홍천군 홍천읍 홍천로5길 15,강원도,홍천군,127.8828551,37.6899756
화곡본동시장점,서울특별시 강서구 까치산로 45,서울특별시,강서구,126.8449152,37.543418100000004
화랑대역점,서울특별시 노원구 노원로1길 67,서울특별시,노원구,127.08365819999999,37.62083270000001
화성기안점,경기도 화성시 효행로 291번길 6-2,경기도,화성시,126.9745773,37.222143700000004
화성남양점,경기도 화성시 남양읍 남양시장로66번길 10-7,경기도,화성시,126.8160068,37.207998499999995
화성반월초점,경기도 화성시 효행로 1337-23,경기도,화성시,127.0618121,37.2253506
화성발안점,경기도 화성시 향남읍 3.1만세로 1110,경기도,화성시,126.90872920000001,37.1325452
화성봉담점,경기도 화성시 봉담읍 동화길 91,경기도,화성시,126.958805,37.2165605
화성송산점,경기도 화성시 화산중앙로 27,경기도,화성시,127.0135298,37.2066797
화성조암점,경기도 화성시 우정읍 조암로 14,경기도,화성시,126.81959590000001,37.0844532
화성향남1점,경기도 화성시 향남읍 행정서로3길 4-56,경기도,화성시,126.91771770000001,37.130078499999996
화정점,경기도 고양시 덕양구 백양로 51,경기도,고양시,126.83328529999999,37.63028
화정힐스테이트점,광주광역시 서구 화정동 935,광주광역시,서구,126.88552549999999,35.1448491
화천사창리점,강원도 화천군 사내면 사내로 46-1,강원도,화천군,127.52111070000001,38.0720665
화천점,강원도 화천군 화천읍 중앙로 28,강원도,화천군,127.7068814,38.1037545
횡성점,강원도 횡성군 횡성읍 삼일로 3-1,강원도,횡성군,127.9863601,37.489869899999995
후암점,서울특별시 용산구 후암로 3-1,서울특별시,용산구,126.9782278,37.546255200000004
휘경점,서울특별시 동대문구 사가정로 222,서울특별시,동대문구,127.0696574,37.5785474
흑석명수대점,서울특별시 동작구 현충로 119,서울특별시,동작구,126.9672021,37.5077817
