store,address,lng,lat,city,district,city_district
강릉2호점,강원 강릉시 임당동 86,128.8960774,37.7550196,강원도,강릉시,강원도강릉시
동해점,강원 동해시 천곡동 845번지,129.1150172,37.52285560000001,강원도,동해시,강원도동해시
속초본점,강원 속초시 교동 1021-1,128.5800173,38.1963771,강원도,속초시,강원도속초시
원주단구점,강원 원주시 단구동 1477-18,127.96612720000002,37.319997799999996,강원도,원주시,강원도원주시
원주본점,강원 원주시 단계동 782-6,127.9343757,37.3472,강원도,원주시,강원도원주시
원주봉화점,"강원 원주시 백간길 25, 벨라시티 SG프라자 측면1층",127.92630049999998,37.352082700000004,강원도,원주시,강원도원주시
춘천석사점,강원 춘천시 석사동 774-3,127.74663290000001,37.861975799999996,강원도,춘천시,강원도춘천시
춘천점,강원 춘천시 소양로3가 177-3,127.72485900000001,37.8819571,강원도,춘천시,강원도춘천시
가능점,경기 의정부시 가능동 17-1 동진빌딩 1층 104호,127.04485459999998,37.7509141,경기도,의정부시,경기도의정부시
경기광주본점,경기 광주시 광주대로 97번길 4,127.25962609999999,37.415469200000004,경기도,광주시,경기도광주시
경기양평점,경기 양평군 양평읍 공흥리 470-4,127.50208310000001,37.490549,경기도,양평군,경기도양평군
고양삼송점,경기 고양시 덕양구 삼송동 74-1,126.8905414,37.6529565,경기도,고양시,경기도고양시
과천우면점,경기 과천시 과천동 455-16 2층,126.9994831,37.4506674,경기도,과천시,경기도과천시
광명소하점,경기 광명시 소하동 1311번지 1층,126.889296,37.4502352,경기도,광명시,경기도광명시
구리교문점,경기 구리시 교문동 754-9,127.1316304,37.59363,경기도,구리시,경기도구리시
구리도농점,경기 남양주시 도농동 306-50,127.15166310000001,37.6079237,경기도,남양주시,경기도남양주시
군포점,경기 군포시 당동 745-9,126.94624640000002,37.3542734,경기도,군포시,경기도군포시
금오2호점,경기 의정부시 신곡동 782-4,127.07894209999999,37.75072539999999,경기도,의정부시,경기도의정부시
김포본점,경기 김포시 사우동 1030,126.7143422,37.6214174,경기도,김포시,경기도김포시
김포장기점,경기 김포시 장기동 1424,126.67059579999999,37.643696500000004,경기도,김포시,경기도김포시
남동탄점,경기 화성시 산척동 253-3,127.1127202,37.1727721,경기도,화성시,경기도화성시
남양주덕소점,경기 남양주시 외부읍 덕소리 138번지,37.587140000000005,127.21672,경기도,남양주시,경기도남양주시
남양주마석점,경기 남양주시 화도읍 녹촌리 12번지 오월프라자 103호,127.29848490000002,37.651779600000005,경기도,남양주시,경기도남양주시
남양주진접역점,경기 남양주시 진접읍 금곡리 1021-3,127.20233390000001,37.7205742,경기도,남양주시,경기도남양주시
남양주호평점,경기 남양주시 호평동 633-9,127.24023009999999,37.6539333,경기도,남양주시,경기도남양주시
남한산성2호점,경기 성남시 중원구 금광2동 4842번지,127.1612236,37.4537779,경기도,성남시,경기도성남시
동동탄점,경기 화성시 영천동 701-12,127.11239450000001,37.205639399999995,경기도,화성시,경기도화성시
동두천점,경기 동두천시 지행동 695-3,127.05447759999998,37.8926838,경기도,동두천시,경기도동두천시
동백점,경기 용인시 기흥구 상하동 461 조영프라자101호,127.1408068,37.2743908,경기도,용인시,경기도용인시
동수원점,경기 수원시 팔달구 지동 483번지,127.03044890000001,37.2790092,경기도,수원시,경기도수원시
배곧신도시점,경기 시흥시 정왕동 2475-1 103호,126.72679879999998,37.3776986,경기도,시흥시,경기도시흥시
별내점,경기 남양주시 별내동 1010-3,127.12439760000001,37.6473736,경기도,남양주시,경기도남양주시
병점2호점,경기 화성시 진안동 527-16,127.0352111,37.2083479,경기도,화성시,경기도화성시
부천송내점,경기 부천시 소사구 송내동 381-4,126.76972409999999,37.483849799999994,경기도,부천시,경기도부천시
부천원종점,경기 부천시 원종동 262-2,126.80510679999999,37.5290404,경기도,부천시,경기도부천시
부천춘의점,경기 부천시 원미구 춘의동 136-1,126.7866195,37.5041278,경기도,부천시,경기도부천시
북수원2호점,경기 수원시 장안구 송죽동 506-2,127.0087864,37.301326,경기도,수원시,경기도수원시
분당금곡점,경기 성남시 분당구 정자동 138-3,127.1144978,37.3602475,경기도,성남시,경기도성남시
분당백현점,경기 성남시 분당구 백현동 605-11,127.1145741,37.3869375,경기도,성남시,경기도성남시
분당야탑점,경기 성남시 분당구 야탑동 382-5,127.13358190000001,37.4116651,경기도,성남시,경기도성남시
분당점,경기 성남시 분당구 분당동 90-6 SHN빌딩 1층,127.1424517,37.36974620000001,경기도,성남시,경기도성남시
산본본점,경기 군포시 산본동 1099-1 태주빌딩 1층,126.92943190000001,37.3655021,경기도,군포시,경기도군포시
상동역점,경기 부천시 원미구 상동 541-1,126.7537203,37.5051441,경기도,부천시,경기도부천시
상록수역점,경기 안산시 상록구 본오동 874-3,126.8647738,37.3022306,경기도,안산시,경기도안산시
서수원점,경기 수원시 권선구 구운동 139-43번지 1층,126.97184890000001,37.2749882,경기도,수원시,경기도수원시
성남종합운동장점,경기 중원구 성남동 3304번지,127.1353148,37.4327979,경기도,중원구,경기도중원구
소사점,경기 부천시 소사구 괴안동 3-26,126.80650359999998,37.4817724,경기도,부천시,경기도부천시
송파위례점,경기 성남시 수정구 위례광장로 322 아이플렉스 1층,127.1426537,37.4718446,경기도,성남시,경기도성남시
수원버스터미널점,경기 수원시 권선구 세류동 1121-4 리치타워,127.0185834,37.250721999999996,경기도,수원시,경기도수원시
수원본점,경기 수원시 팔달구 인계동 1116-3,127.0367334,37.2651256,경기도,수원시,경기도수원시
수원중앙점,경기 수원시 팔달구 매산로3가 62-5,127.008477,37.2689767,경기도,수원시,경기도수원시
수원천천2호점,경기 수원시 장안구 천천동 528-1,126.9828342,37.2952662,경기도,수원시,경기도수원시
시화본점,경기 시흥시 정왕동 1735-4 1층,126.735413,37.3455021,경기도,시흥시,경기도시흥시
시흥능곡점,경기 시흥시 능곡동 517,126.8103595,37.3700737,경기도,시흥시,경기도시흥시
시흥대야점,경기 시흥시 대야동 557-1,126.7927345,37.4398918,경기도,시흥시,경기도시흥시
신봉점,경기 용인시 수지구 수지로 217 부광주차타워 1층,127.0840385,37.32058129999999,경기도,용인시,경기도용인시
신중동점,경기 부천시 중동 1079-2 블래스랜드빌딩107호,126.7778837,37.5033321,경기도,부천시,경기도부천시
안산고잔2호점,경기 안산시 단원구 광덕대로 161,126.8291188,37.3110066,경기도,안산시,경기도안산시
안산선부2호점,경기 안산시 단원구 선부1동 1071-12,126.80705659999998,37.3335436,경기도,안산시,경기도안산시
안산성포점,경기 안산시 상록구 성포동 592-2 현대1차 상가,126.8450253,37.32471760000001,경기도,안산시,경기도안산시
안산중앙점,경기 안산시 단원구 고잔동 536,126.8338094,37.3182318,경기도,안산시,경기도안산시
안성석정점,"경기 안성시 석정동 139-1번지 외 2필지 (관련지번: 139-2, 139-3)",127.2571885,37.0121695,경기도,안성시,경기도안성시
안양박달점,경기 안양시 만안구 안양동 856-14,126.91461470000002,37.4074543,경기도,안양시,경기도안양시
안양본점,경기 안양시 만안구 안양동 414-4,126.92709860000001,37.39237670000001,경기도,안양시,경기도안양시
안중점,경기 평택시 안중읍 현화리 847-2,126.9251379,36.983984,경기도,평택시,경기도평택시
양주고읍점,경기 양주시 고읍남로 6-14,127.0791687,37.795919399999995,경기도,양주시,경기도양주시
여주점,경기 여주시 홍문동 233-13,127.63374280000001,37.2890136,경기도,여주시,경기도여주시
영통로점,경기 용인시 기흥구 서천동 360,127.0685402,37.2447509,경기도,용인시,경기도용인시
오산2호점,경기 오산시 원동 756-1번지,127.0738925,37.1474119,경기도,오산시,경기도오산시
오산세교점,경기 오산시 수청동 568-2,127.05834080000001,37.170812899999994,경기도,오산시,경기도오산시
용인구성본점,경기 용인시 마북동 317-2,127.11680159999999,37.295398999999996,경기도,용인시,경기도용인시
용인롯데스카이점,경기 용인시 기흥구 신갈동 64-16,127.1097821,37.2725766,경기도,용인시,경기도용인시
용인수지2호점,경기 용인시 수지구 풍덕천동 742번지 덕윤프라자107호,127.1015364,37.3268506,경기도,용인시,경기도용인시
용인시청점,경기 용인시 처인구 김량장동 408,127.195074,37.2345469,경기도,용인시,경기도용인시
원당점,경기 고양시 덕양구 성사동 698-7,126.83568490000002,37.655840999999995,경기도,고양시,경기도고양시
의정부민락점,경기 의정부시 낙양동 743,127.11349650000001,37.7562511,경기도,의정부시,경기도의정부시
의정부호원점,경기 의정부시 호원동 326-6,127.043297,37.727941200000004,경기도,의정부시,경기도의정부시
이천2호점,경기 이천시 창전동 464-24,127.4470362,37.2790183,경기도,이천시,경기도이천시
일산킨텍스점,경기 고양시 일산서구 대화동 2283-2,126.75181470000001,37.6707741,경기도,고양시,경기도고양시
정발산2호점,경기 고양시 일산동구 마두동 923-2,126.7859419,37.660845,경기도,고양시,경기도고양시
죽전점,경기 용인시 수지구 죽전동 1151번지 인현마을 현대홈타운 2상가 1층,127.11126920000001,37.3323357,경기도,용인시,경기도용인시
철산역2호점,경기 광명시 철산동 382 다인빌딩 2층 203호,126.8690105,37.4760082,경기도,광명시,경기도광명시
탄현2호점,경기 고양시 일산서구 덕이동 303번지,126.7602666,37.696876700000004,경기도,고양시,경기도고양시
태평역점,경기 성남시 수정구 태평동 6973,127.1273111,37.440136200000005,경기도,성남시,경기도성남시
파주금촌점,경기 파주시 금촌동 770-9,126.77816299999999,37.758555799999996,경기도,파주시,경기도파주시
파주운정점,경기 파주시 목동동 778-2,126.74742409999999,37.7299258,경기도,파주시,경기도파주시
판교중앙점,경기 성남시 분당구 판교동 621-4 번지,127.0895854,37.3899039,경기도,성남시,경기도성남시
평촌관양점,경기 안양시 동안구 관양동 1442-9 2층,126.9565101,37.4025686,경기도,안양시,경기도안양시
평택소사벌점,경기 평택시 비전동 1091-4,127.11263090000001,37.000128600000004,경기도,평택시,경기도평택시
평택이충점,경기 평택시 이충로 35번길 28-7,127.0655875,37.0595567,경기도,평택시,경기도평택시
평택중앙점,경기 평택시 합정동 672-2 스카이빌딩1층,127.09371399999999,36.9934347,경기도,평택시,경기도평택시
포천송우리점,경기 포천시 소흘읍 송우리 105-5,127.1487783,37.8304477,경기도,포천시,경기도포천시
포천신읍점,경기 포천시 신읍동 82-6번지,127.1979027,37.891189000000004,경기도,포천시,경기도포천시
하남미사점,"경기 하남시 망월동 927 한강타워114,115호",127.1948082,37.5691037,경기도,하남시,경기도하남시
하남신장점,경기 하남시 신장동 448-35 지송빌딩 1층,127.2116382,37.539113799999996,경기도,하남시,경기도하남시
행신역점,경기 고양시 덕양구 행신동 707-1 동진프라자 1층 102호,126.8337112,37.6138148,경기도,고양시,경기도고양시
호계점,경기 안양시 동안구 평촌동 922-5,126.96096059999999,37.383018299999996,경기도,안양시,경기도안양시
화성봉담점,경기 화성시 봉담읍 동화리 622 번지,126.96343759999999,37.2151906,경기도,화성시,경기도화성시
화성향남점,경기 화성시 향남읍 행정리 459-7 1층,126.9142842,37.1250699,경기도,화성시,경기도화성시
화정역점,경기 고양시 덕양구 화정동 970-3 장군빌딩 2층,126.8315692,37.6339014,경기도,고양시,경기도고양시
거제고현점,경남 거제시 고현동 209-2,128.62556419999999,34.8838679,경상남도,거제시,경상남도거제시
거제롯데마트점,경남 거제시 옥포동 241-1 거제롯데마트 3층,128.691259,34.88805479999999,경상남도,거제시,경상남도거제시
거제옥포점,경남 거제시 옥포동 529-12,128.6899238,34.893758500000004,경상남도,거제시,경상남도거제시
김해내동3호점,경남 김해시 내동 1143-1,128.86741940000002,35.2367171,경상남도,김해시,경상남도김해시
김해어방점,경남 김해시 어방동 402번지,128.9038615,35.2407632,경상남도,김해시,경상남도김해시
김해장유본점,경남 김해시 삼문동 39-13 제일프라자 1층,128.8087308,35.203019899999994,경상남도,김해시,경상남도김해시
마산내서점,경남 창원시 마산회원구 내서읍 삼계리 30-3,128.5046098,35.231875099999996,경상남도,창원시,경상남도창원시
마산양덕점,경남 창원시 마산회원구 양덕동 60-31,128.5842082,35.2295665,경상남도,창원시,경상남도창원시
마산중앙점,경남 창원시 마산합포구 중앙동1가 6-6,128.5628332,35.1899432,경상남도,창원시,경상남도창원시
밀양점,경남 밀양시 삼문동 169-25,128.7577486,35.4851651,경상남도,밀양시,경상남도밀양시
사천점,경남 사천시 정동면 예수리 640-6 번지,128.0802638,35.070663700000004,경상남도,사천시,경상남도사천시
삼천포점,경남 사천시 벌리동 251-1,128.0850913,34.9381846,경상남도,사천시,경상남도사천시
양산물금점,경남 양산시 물금읍 가촌리 1280-4 나래메트로 시티상가 108호,129.00440220000002,35.3152841,경상남도,양산시,경상남도양산시
양산웅상점,경남 양산시 삼호동 1010-8,129.1676594,35.413189,경상남도,양산시,경상남도양산시
양산중부점,경남 양산시 중부동 685-4,129.0271898,35.3386253,경상남도,양산시,경상남도양산시
진주신안점,경남 진주시 신안동 10-3,128.071492,35.1879587,경상남도,진주시,경상남도진주시
진주MBC2호점,경남 진주시 가좌동 700-1,128.10734140000002,35.163757000000004,경상남도,진주시,경상남도진주시
진해중앙점,경남 창원시 진해구 이동 675-15,128.6969615,35.15466970000001,경상남도,창원시,경상남도창원시
창원2호점,경남 창원시 성산구 상남동 2-4,128.6864518,35.22350479999999,경상남도,창원시,경상남도창원시
창원명서2호점,경남 창원시 의창구 명서동 202-3번지,128.64961540000002,35.240777,경상남도,창원시,경상남도창원시
통영무전점,경남 통영시 무전동 1015-6,128.4217683,34.8602581,경상남도,통영시,경상남도통영시
경산점,경북 경산시 중방동 883-35,128.7403744,35.8237034,경상북도,경산시,경상북도경산시
경주황성점,경북 경주시 황성동 480-6,129.2159703,35.8626426,경상북도,경주시,경상북도경주시
구미송정2호점,경북 구미시 송정동 461-6,128.3426237,36.1173426,경상북도,구미시,경상북도구미시
구미원평,경북 구미시 원평동 375-5 2층,128.3342835,36.1288616,경상북도,구미시,경상북도구미시
구미인동점,경북 구미시 진평동 620번지,128.4199757,36.1049168,경상북도,구미시,경상북도구미시
김천대신점,경북 김천시 신음동 464-1번지,128.1177237,36.1350831,경상북도,김천시,경상북도김천시
김천혁신점,경북 김천시 율곡동 780 율곡스퀘어3 107호,128.1833115,36.117971399999995,경상북도,김천시,경상북도김천시
문경점촌점,경북 문경시 모전동 860-14,128.1912106,36.5868849,경상북도,문경시,경상북도문경시
상주점,경북 상주시 복룡동 467-12,128.162912,36.4189763,경상북도,상주시,경상북도상주시
안동본점,경북 안동시 당북동 119-13,128.72042199999999,36.5660047,경상북도,안동시,경상북도안동시
영주점,경북 영주시 영주2동 422-4,128.62201480000002,36.82073629999999,경상북도,영주시,경상북도영주시
포항대흥점,경북 포항시 북구 대흥동 595-7,129.3622078,36.0365263,경상북도,포항시,경상북도포항시
포항장성점,경북 포항시 북구 장성동 1577-9,129.38454950000002,36.07456320000001,경상북도,포항시,경상북도포항시
포항지곡2호점,경북 포항시 남구 대잠동 780-78,129.3356369,36.010973299999996,경상북도,포항시,경상북도포항시
광주광천점,광주 서구 화정동 69-7 번지,126.8783531,35.157219700000006,광주광역시,서구,광주광역시서구
광주금남로점,광주 동구 금남로5가 114-3,126.9121366,35.1520659,광주광역시,동구,광주광역시동구
광주금호점,광주 서구 금호동 732-8,126.8589915,35.1400035,광주광역시,서구,광주광역시서구
광주문흥점,광주 북구 문흥동 952-13,126.91817890000002,35.1870224,광주광역시,북구,광주광역시북구
광주비엔날레점,전남 광주시 북구 용봉동 1035번지,126.889053,35.1813067,전라남도,광주시,전라남도광주시
광주수완점,광주 광산구 하남동 752,126.8044353,35.1794977,광주광역시,광산구,광주광역시광산구
광주양산점,광주 북구 연제동 478-56,126.8708263,35.206090100000004,광주광역시,북구,광주광역시북구
광주주월점,광주 남구 주월동 401-4 1층,126.89794429999999,35.129695700000006,광주광역시,남구,광주광역시남구
신창점,광주 광산구 신창동 1224-4번지 반석빌딩2층,126.83740379999999,35.1923161,광주광역시,광산구,광주광역시광산구
대구감삼점,대구 달서구 감삼동 64-10,128.54432820000002,35.8532473,대구광역시,달서구,대구광역시달서구
대구성당점,대구 달서구 성당동 567-1 번지,128.5490045,35.8414554,대구광역시,달서구,대구광역시달서구
대구수성2호점,대구 수성구 수성동4가 1085-5,128.61833810000002,35.8598723,대구광역시,수성구,대구광역시수성구
대구안심점,대구 동구 동호동 106-25,128.7134439,35.8692388,대구광역시,동구,대구광역시동구
대구칠곡본점,대구광역시 북구 동천동 905-3,128.5584366,35.9424341,대구광역시,북구,대구광역시북구
대구침산점,대구 북구 칠성동2가 81-3,128.5893351,35.8797476,대구광역시,북구,대구광역시북구
대구황금역점,대구 수성구 청수로 166,128.6260763,35.838961100000006,대구광역시,수성구,대구광역시수성구
복현점,대구 북구 복현동 200-2,128.6160529,35.897511,대구광역시,북구,대구광역시북구
상인역2호점,대구 달서구 상인동 730,128.5379282,35.819404600000006,대구광역시,달서구,대구광역시달서구
성서계명대점,대구 달서구 신당동 1804-4번지,128.4948084,35.8553273,대구광역시,달서구,대구광역시달서구
시지광장점,대구 수성구 신매동 567-41,128.70681299999998,35.839577399999996,대구광역시,수성구,대구광역시수성구
영대병원점,대구 남구 봉덕동 1298-4,128.5908504,35.846458399999996,대구광역시,남구,대구광역시남구
대전가오점,대전 동구 가오동 235-26,127.4523155,36.3061111,대전광역시,동구,대전광역시동구
대전갈마점,대전 서구 갈마동 262-12,127.36961629999999,36.3551394,대전광역시,서구,대전광역시서구
대전관저점,대전 서구 관저동 1515번지 207호,127.3379193,36.2985744,대전광역시,서구,대전광역시서구
대전도마2호점,대전 서구 도마동 90-36,127.37846909999999,36.317611799999995,대전광역시,서구,대전광역시서구
대전엑스포점,대전 유성구 도룡동 385-15,127.3790287,36.3862527,대전광역시,유성구,대전광역시유성구
대전우송점,대전 동구 가양동 172-4,127.44691979999999,36.3435595,대전광역시,동구,대전광역시동구
대전탄방점,대전 서구 탄방동 1161,127.3954878,36.3478257,대전광역시,서구,대전광역시서구
대전테크노밸리점,대전 유성구 관평동 943,127.3912146,36.426084499999995,대전광역시,유성구,대전광역시유성구
대전한남점,대전 대덕구 중리동 251-1 한밭오피스텔 107호,127.42725039999999,36.3585148,대전광역시,대덕구,대전광역시대덕구
유성2호점,대전 유성구 봉명동 552-5,127.34125,36.354320200000004,대전광역시,유성구,대전광역시유성구
자운대점,대전 유성구 신봉동 154-1 자운레스텔1층,127.3381402,36.408109,대전광역시,유성구,대전광역시유성구
동아대점,부산 사하구 하단동 492-2,128.964779,35.1125283,부산광역시,사하구,부산광역시사하구
부산개금점,부산 부산진구 개금동 186-8,129.0256338,35.153473,부산광역시,부산진구,부산광역시부산진구
부산괴정2호점,부산 사하구 괴정동 477-31,128.9938738,35.0961179,부산광역시,사하구,부산광역시사하구
부산구서점,부산 금정구 구서동 86-89,129.090844,35.24846420000001,부산광역시,금정구,부산광역시금정구
부산다대포2호점,부산 사하구 다대동 1667 다대푸르지오상가 121동 102호,128.97290149999998,35.062029700000004,부산광역시,사하구,부산광역시사하구
부산대연점,부산 남구 대연동 324-17 1층,129.0964527,35.135518299999994,부산광역시,남구,부산광역시남구
부산덕천점,부산 북구 덕천동 400-17,129.00648429999998,35.2101357,부산광역시,북구,부산광역시북구
부산망미점,부산 수영구 망미2동 412-21,129.1076006,35.1766036,부산광역시,수영구,부산광역시수영구
부산명장점,부산 동래구 명장동 489-24,129.1046789,35.209914399999995,부산광역시,동래구,부산광역시동래구
부산명지점,부산 강서구 명지동 3231번지 퀸덤1차아파트 상가동,128.8977595,35.084881200000005,부산광역시,강서구,부산광역시강서구
부산반여점,부산 해운대구 반여1동 1629-4,129.1234207,35.2002911,부산광역시,해운대구,부산광역시해운대구
부산보수점,부산 중구 보수동3가 72-3,129.0228525,35.103413200000006,부산광역시,중구,부산광역시중구
부산부암점,부산 부산진구 부암동 80-50,129.0527562,35.1651917,부산광역시,부산진구,부산광역시부산진구
부산서면2호점,부산 부산진구 부전동 175,129.0614383,35.1551405,부산광역시,부산진구,부산광역시부산진구
부산센텀점,"부산 해운대구 우동 1506번지 센텀스퀘어상가 204,205호",129.1334535,35.167133,부산광역시,해운대구,부산광역시해운대구
부산연산점,부산 연제구 거제동 1470-14,129.0808343,35.192480200000006,부산광역시,연제구,부산광역시연제구
부산영도점,부산 영도구 동삼동 232-1 일동미라주브라이튼 상가 106호,129.0705469,35.0821941,부산광역시,영도구,부산광역시영도구
부산온천점,부산 동래구 온천1동 154-12,129.0836072,35.2195444,부산광역시,동래구,부산광역시동래구
부산용호3호점,부산 남구 용호1동 369-8,129.11204009999997,35.12136629999999,부산광역시,남구,부산광역시남구
부산정관점,부산 기장군 정관면 매학리 748-6,129.17907490000002,35.3207406,부산광역시,기장군,부산광역시기장군
부산진역점,부산 동구 수정동 1-61,129.0488207,35.1291911,부산광역시,동구,부산광역시동구
부산학장점,부산 사상구 학장동 272-3,128.98770190000002,35.1480005,부산광역시,사상구,부산광역시사상구
부산화명3호점,부산 북구 화명동 182-5,129.0130743,35.245234,부산광역시,북구,부산광역시북구
신해운대점,부산 해운대구 좌동 1327-5,129.1825932,35.16867020000001,부산광역시,해운대구,부산광역시해운대구
가락3호점,서울 송파구 가락동 121-4,127.1245565,37.493008,서울특별시,송파구,서울특별시송파구
가산점,서울 금천구 디지털로 206 1층,126.8893362,37.4786958,서울특별시,금천구,서울특별시금천구
강남논현점,서울 강남구 논현동 234번지 2층,127.03380190000001,37.5084309,서울특별시,강남구,서울특별시강남구
강동3호점,서울 강동구 천호동 151-2,127.13566189999999,37.5384783,서울특별시,강동구,서울특별시강동구
개봉2호점,서울 구로구 개봉동 353-14 2층,126.8561903,37.497155600000006,서울특별시,구로구,서울특별시구로구
개포3호점,서울 서초구 양재동 84-15,127.0431992,37.4805967,서울특별시,서초구,서울특별시서초구
거여점,서울 송파구 거여동 562-2번지 2층,127.14359590000001,37.493162899999994,서울특별시,송파구,서울특별시송파구
공덕점,서울 마포구 신공덕동 15-82 2층상가,126.9548301,37.5448814,서울특별시,마포구,서울특별시마포구
공릉2호점,서울 노원구 공릉동 568-25,127.0735531,37.6228711,서울특별시,노원구,서울특별시노원구
구산2호점,서울 은평구 구산동 1-24번지,126.9165697,37.6114428,서울특별시,은평구,서울특별시은평구
구의점,서울 광진구 아차산로 431 강변SK뷰 102동 102호,127.09012040000002,37.538818799999994,서울특별시,광진구,서울특별시광진구
군자2호점,서울 광진구 중곡동 162-12,127.08097930000001,37.560342299999995,서울특별시,광진구,서울특별시광진구
금호사거리점,서울 성동구 금호동1가 1801-3 1층,127.02613400000001,37.5488673,서울특별시,성동구,서울특별시성동구
까치산2호점,서울 강서구 화곡동 921-22,126.84094340000001,37.530094399999996,서울특별시,강서구,서울특별시강서구
난곡2호점,서울 관악구 신림동 1570-9,126.9183124,37.4822487,서울특별시,관악구,서울특별시관악구
노원점,서울 노원구 상계동 751-4,127.0654916,37.6521441,서울특별시,노원구,서울특별시노원구
당산3호점,서울 영등포구 당산동3가 139-2호 화진빌딩 2층,126.8979426,37.5272468,서울특별시,영등포구,서울특별시영등포구
대방점,서울 동작구 대방동 341-4,126.9255288,37.5119994,서울특별시,동작구,서울특별시동작구
도곡2호점,서울 강남구 개포동 158-12번지JJ빌딩1층,127.06149409999999,37.482248299999995,서울특별시,강남구,서울특별시강남구
독립문2호점,서울 종로구 교남동 25,126.96510970000001,37.5677446,서울특별시,종로구,서울특별시종로구
동덕여대점,서울 성북구 하월곡동 16-3,127.0431162,37.6031449,서울특별시,성북구,서울특별시성북구
마곡점,서울 강서구 마곡동 747 마곡엠밸리10단지,126.81936540000001,37.5595465,서울특별시,강서구,서울특별시강서구
망우점,서울 중랑구 망우동 487-2,127.1000613,37.600068799999995,서울특별시,중랑구,서울특별시중랑구
목동중앙점,"서울 양천구 목동 908-34 부영그린타운3차109,110호",126.88221159999999,37.536731,서울특별시,양천구,서울특별시양천구
미아삼거리점,서울 강북구 미아동 49-15 1층,127.03426759999999,37.611385299999995,서울특별시,강북구,서울특별시강북구
방배2호점,서울 서초구 방배동 851-6,126.99307409999999,37.489293599999996,서울특별시,서초구,서울특별시서초구
방이점,서울 송파구 방이동 160번지 1층,127.1198812,37.512458,서울특별시,송파구,서울특별시송파구
방학역점,서울 도봉구 방학동 705-3,127.04385559999999,37.669020399999994,서울특별시,도봉구,서울특별시도봉구
보라매점,서울 동작구 대방동 400-3번지,126.9206625,37.4994876,서울특별시,동작구,서울특별시동작구
불광점,서울 은평구 불광동 494번지,126.92036259999999,37.625708,서울특별시,은평구,서울특별시은평구
사가정점,서울 중랑구 면목동 498-3,127.08836640000001,37.582793,서울특별시,중랑구,서울특별시중랑구
사당점,서울 동작구 사당3동 152-2 1층,126.9784692,37.48444179999999,서울특별시,동작구,서울특별시동작구
삼성중앙점,서울 강남구 삼성동 48-4,127.0503389,37.5136374,서울특별시,강남구,서울특별시강남구
삼양사거리점,서울 강북구 미아동 688-5,127.02071799999999,37.6193771,서울특별시,강북구,서울특별시강북구
상도역점,서울 동작구 상도1동 783-1 1층,126.9484014,37.5019332,서울특별시,동작구,서울특별시동작구
서울고점,서울 서초구 서초동 1533 1층,127.0099788,37.484207500000004,서울특별시,서초구,서울특별시서초구
서울대본점,서울 관악구 봉천동 1673-21,126.9569324,37.480003100000005,서울특별시,관악구,서울특별시관악구
서초교대역,서울 서초구 서초동 1689-2,127.01791159999999,37.495221799999996,서울특별시,서초구,서울특별시서초구
성내본점,서울 강동구 성내동 435-9,127.13033359999999,37.526293700000004,서울특별시,강동구,서울특별시강동구
성산3호점,서울 마포구 성산동 108-4,126.9140246,37.5632523,서울특별시,마포구,서울특별시마포구
성수점,서울 성동구 성수동2가 289-5,127.05743290000001,37.5477206,서울특별시,성동구,서울특별시성동구
성신여대본점,서울 성북구 동선동1가 85-80번지,127.0179229,37.592257200000006,서울특별시,성북구,서울특별시성북구
송파사거리점,서울 송파구 송파동 96-3,127.1099267,37.502734600000004,서울특별시,송파구,서울특별시송파구
수락산역점,서울 노원구 상계1동 1118-97번지,127.0548272,37.6772463,서울특별시,노원구,서울특별시노원구
수서일원점,서울 강남구 일원동 685-6호 1층,127.08217479999999,37.4896399,서울특별시,강남구,서울특별시강남구
수유리2호점,서울 강북구 수유동 322-13,127.0155595,37.6459781,서울특별시,강북구,서울특별시강북구
숙대역2호점,서울 용산구 남영동 78-1,126.9729422,37.5427766,서울특별시,용산구,서울특별시용산구
시흥2호점,서울 금천구 시흥동 838-33,126.9057929,37.452610899999996,서울특별시,금천구,서울특별시금천구
신구로점,서울 구로구 구로동 97-3 1층,126.89168090000001,37.496370899999995,서울특별시,구로구,서울특별시구로구
신림2호점,서울 관악구 신림2동 116-21호,126.93453319999999,37.471791499999995,서울특별시,관악구,서울특별시관악구
신림본점,서울 관악구 신림동 1416-1,126.93178600000002,37.4873655,서울특별시,관악구,서울특별시관악구
신반포점,서울 서초구 잠원동 50-6,127.01469440000001,37.5152636,서울특별시,서초구,서울특별시서초구
신수점,서울 마포구 구수동 57-3번지,126.9321994,37.545755,서울특별시,마포구,서울특별시마포구
신월점,"서울 양천구 신월동 501-10로즈가든101,102호",126.8510665,37.5225734,서울특별시,양천구,서울특별시양천구
쌍문2호점,서울 도봉구 창5동 700-33,127.037609,37.6527167,서울특별시,도봉구,서울특별시도봉구
암사점,서울 강동구 암사동 452,127.13589170000002,37.5545429,서울특별시,강동구,서울특별시강동구
압구정역,서울 강남구 신사동 577-7,127.02739220000001,37.5252803,서울특별시,강남구,서울특별시강남구
약수점,서울 중구 신당동 370-52,127.0119034,37.5575918,서울특별시,중구,서울특별시중구
양평점,서울 영등포구 당산동1가 53-4,126.8977189,37.5214425,서울특별시,영등포구,서울특별시영등포구
여의도중앙점,서울 영등포구 여의도동 53-12,126.93356259999999,37.5183996,서울특별시,영등포구,서울특별시영등포구
역삼본점,서울 강남구 역삼동 788-14,127.0410061,37.4928989,서울특별시,강남구,서울특별시강남구
연희본점,서울 서대문구 연희동 79-31,126.9351488,37.571836700000006,서울특별시,서대문구,서울특별시서대문구
염창2호점,서울 양천구 목3동 621-15번지,126.86324340000002,37.547035799999996,서울특별시,양천구,서울특별시양천구
오류점,서울 구로구 오류동 44-10,126.8410585,37.4944403,서울특별시,구로구,서울특별시구로구
오목교역2호점,서울 양천구 신정동 117-35,126.87441470000002,37.521864799999996,서울특별시,양천구,서울특별시양천구
왕십리행당점,서울 성동구 행당동 130-120,127.03847820000001,37.5581646,서울특별시,성동구,서울특별시성동구
외대2호점,서울 동대문구 이문2동 257 파크빌 101호,127.0621247,37.601434600000005,서울특별시,동대문구,서울특별시동대문구
월계2호점,서울 성북구 장위3동 165-3번지 1층,127.05155900000001,37.621872700000004,서울특별시,성북구,서울특별시성북구
응암2호점,서울 은평구 응암동 107-2,126.9205277,37.5974607,서울특별시,은평구,서울특별시은평구
이촌역점,서울 용산구 한강로3가 65-373,126.9684155,37.5240995,서울특별시,용산구,서울특별시용산구
잠실본점,서울 송파구 잠실동 175-9번지,127.0797243,37.5115104,서울특별시,송파구,서울특별시송파구
잠실야구장점,서울 송파구 잠실1동 10번지 종합운동장,127.0730045,37.516476700000005,서울특별시,송파구,서울특별시송파구
전농점,서울 동대문구 전농동 295-52,127.0570794,37.5780419,서울특별시,동대문구,서울특별시동대문구
정릉2호점,서울 성북구 정릉동 400-2 1층,127.0096966,37.608813700000006,서울특별시,성북구,서울특별시성북구
종로본점,서울 종로구 관수동 146-6,126.989725,37.5687414,서울특별시,종로구,서울특별시종로구
중화본점,서울 중랑구 중화동 207-13,127.07830049999998,37.594798100000006,서울특별시,중랑구,서울특별시중랑구
증산역2호점,서울 은평구 증산동 177-6,126.9059381,37.5809274,서울특별시,은평구,서울특별시은평구
창신점,서울 종로구 숭인동 61-61,127.0158055,37.576300599999996,서울특별시,종로구,서울특별시종로구
청담사거리점,서울 강남구 청담동 5-25,127.04607309999999,37.5237052,서울특별시,강남구,서울특별시강남구
테크노마트신도림점RR,서울 구로구 구로동 3-25 신도림테크노마트 B1 식당가,126.8903509,37.5069877,서울특별시,구로구,서울특별시구로구
평창본점,서울 종로구 평창동 150-5번지 행운빌딩 2층,126.9719338,37.6070725,서울특별시,종로구,서울특별시종로구
한남역점,서울 용산구 한남동 107-10 1층,127.00736529999999,37.5310753,서울특별시,용산구,서울특별시용산구
한티본점,서울 강남구 대치동 908-20 대치이엠프라자 1층 103호,127.0515629,37.500186799999994,서울특별시,강남구,서울특별시강남구
혜화점,서울 종로구 명륜2가 195-9,126.999003,37.583532899999994,서울특별시,종로구,서울특별시종로구
홍대서교점,서울 마포구 서교동 481-2,126.914647,37.5545721,서울특별시,마포구,서울특별시마포구
홍제2호점,서울 서대문구 홍제동 94번지,126.94870049999999,37.5841985,서울특별시,서대문구,서울특별시서대문구
화곡점,서울 강서구 화곡동 24-346 1층,126.8472364,37.5486482,서울특별시,강서구,서울특별시강서구
화양2호점,서울 광진구 화양동 49-18,127.06550959999998,37.5419833,서울특별시,광진구,서울특별시광진구
세종시청점,세종 세종시 보람동 615-2 금강르네상스 1층,36.474835999999996,127.280821,세종특별자치시,세종시,세종특별자치시세종시
세종점,세종 세종시 아름동 98,36.511348999999996,127.248425,세종특별자치시,세종시,세종특별자치시세종시
세종청사점,세종 세종시 다정동 363-10 가온마을11단지,36.494890999999996,127.25081899999999,세종특별자치시,세종시,세종특별자치시세종시
세종홈플러스점,세종 세종시 어진동 307-7,36.507844,127.258684,세종특별자치시,세종시,세종특별자치시세종시
조치원점,세종 세종시 조치원읍 죽림리 331-7 번지,36.589599,127.299109,세종특별자치시,세종시,세종특별자치시세종시
울산달동점,울산 남구 달동 880-6,129.3138782,35.5362273,울산광역시,남구,울산광역시남구
울산삼호점,울산 남구 무거동 172-8,129.2683908,35.5521037,울산광역시,남구,울산광역시남구
울산센트럴점,울산 남구 삼산동 1546-6,129.3363698,35.544035799999996,울산광역시,남구,울산광역시남구
울산약사로점,울산 중구 반구2동 26-24번지,129.3403159,35.566362299999994,울산광역시,중구,울산광역시중구
울산일산본점,울산 동구 일산동 938-1,129.42940990000002,35.5022526,울산광역시,동구,울산광역시동구
울산호계점,울산 북구 호계동 258-10,129.3512218,35.6285474,울산광역시,북구,울산광역시북구
가정2호점,인천 서구 신현동 82-6 1층,126.66761499999998,37.5179196,인천광역시,서구,인천광역시서구
계양점,인천 계양구 작전동 853-31,126.72209070000001,37.53285379999999,인천광역시,계양구,인천광역시계양구
동암점,인천 부평구 십정2동 408-11,126.70140970000001,37.4702746,인천광역시,부평구,인천광역시부평구
동인천역점,인천 중구 인현동 67,126.6304613,37.473956799999996,인천광역시,중구,인천광역시중구
만수역점,인천 남동구 만수1동 948-5,126.73082050000001,37.454837899999994,인천광역시,남동구,인천광역시남동구
부평2호점,인천 부평구 산곡동 143-2,126.7099372,37.5036592,인천광역시,부평구,인천광역시부평구
부흥점,인천 부평구 부평5동 126-1,126.7308009,37.4992116,인천광역시,부평구,인천광역시부평구
송도점,"인천 연수구 송도동 2-12 성지리벨루스상가 104,105호",126.66160579999999,37.3906609,인천광역시,연수구,인천광역시연수구
연수동춘점,인천 연수구 봉재산로 44번길 3 대성빌딩 101~104호,126.6658896,37.4079387,인천광역시,연수구,인천광역시연수구
영종스카이점,인천 중구 운서동 3044-5,126.4983554,37.494825899999995,인천광역시,중구,인천광역시중구
용현점,인천 남구 용현동 459-67,126.65037520000001,37.456576899999995,인천광역시,남구,인천광역시남구
인천검단점,인천 서구 마전동 553-1,126.6756977,37.593727799999996,인천광역시,서구,인천광역시서구
인천남동점,인천 남동구 구월1동 1191-9 (1층),126.70764550000001,37.447448,인천광역시,남동구,인천광역시남동구
인천논현점,인천 남동구 논현동 666-7,126.73322399999999,37.4021776,인천광역시,남동구,인천광역시남동구
인천박촌점,인천 계양구 박촌동 309,126.7464635,37.5569594,인천광역시,계양구,인천광역시계양구
주안역2호점,인천 남구 주안1동 130-7번지,126.6816665,37.464288700000004,인천광역시,남구,인천광역시남구
진흥점,인천 남구 주안동 1460-6,126.6792078,37.4488158,인천광역시,남구,인천광역시남구
청라점,인천 서구 경서동 850-22,126.644401,37.5365344,인천광역시,서구,인천광역시서구
광양중마점,전남 광양시 중동 1296-11,127.6983249,34.9415179,전라남도,광양시,전라남도광양시
광양칠성점,전남 광양시 광양읍 칠성리 930-7,127.5816163,34.974929700000004,전라남도,광양시,전라남도광양시
남악점,전남 무안군 삼향읍 남악3로 55 남악 펠리시티 3차,126.45977490000001,34.8103374,전라남도,무안군,전라남도무안군
목포점,전남 목포시 상동 1000번지,126.42678240000001,34.8034825,전라남도,목포시,전라남도목포시
순천본점,전남 순천시 조례동 1597-15,127.5227853,34.9528732,전라남도,순천시,전라남도순천시
순천장천점,전남 순천시 저전동 229-5,127.48701809999999,34.947595799999995,전라남도,순천시,전라남도순천시
여수여천점,전남 여수시 학동 69-5,127.6632287,34.7632155,전라남도,여수시,전라남도여수시
여수터미널2호점,전남 여수시 오림동 406-1,127.7161621,34.7578151,전라남도,여수시,전라남도여수시
군산본점,전북 군산시 나운동 154-1,126.6982904,35.9620557,전라북도,군산시,전라북도군산시
군산수송점,"전북 군산시 수송동 828-3, 16",126.7166404,35.96878710000001,전라북도,군산시,전라북도군산시
익산모현점,전북 익산시 모현동 250-4,126.94230459999999,35.9432756,전라북도,익산시,전라북도익산시
익산영등점,전북 익산시 영등동 747-2,126.97142190000001,35.958126,전라북도,익산시,전라북도익산시
전주금암점,전북 전주시 덕진구 금암동 1591-15,127.14019979999999,35.843355100000004,전라북도,전주시,전라북도전주시
전주효자점,전북 전주시 완산구 효자동1가 효자동1가 298-4,35.806266,127.121707,전라북도,전주시,전라북도전주시
서귀포점,제주 서귀포시 동홍동 116-9,126.57041940000002,33.2549578,제주특별자치도,서귀포시,제주특별자치도서귀포시
제주연동점,제주 제주시 연동 292-29,126.49491670000002,33.489538399999994,제주특별자치도,제주시,제주특별자치도제주시
제주이도점,제주 제주시 이도2동 1060-14,126.5365824,33.497046600000004,제주특별자치도,제주시,제주특별자치도제주시
피자헛매장1,제주특별자치도 서귀포시 대정읍 가파리 583-1,126.2693123,33.1153689,제주특별자치도,서귀포시,제주특별자치도서귀포시
공주신관점,충남 공주시 신관동 265-15,127.13961210000001,36.474576,충청남도,공주시,충청남도공주시
논산2호점,충남 논산시 취암동 501-18,127.09341370000001,36.1948149,충청남도,논산시,충청남도논산시
당진점,충남 당진시 읍내동 786,126.63737350000001,36.8962398,충청남도,당진시,충청남도당진시
아산배방점,충남 아산시 배방읍 북수리 645-10,127.06902509999999,36.7742591,충청남도,아산시,충청남도아산시
아산점,충남 아산시 온천동 87-5,127.0047138,36.780829,충청남도,아산시,충청남도아산시
천안두정점,충남 천안시 서북구 두정동 698번지 2층,127.1330613,36.8335591,충청남도,천안시,충청남도천안시
천안쌍용점,충남 천안시 서북구 쌍용동 1369번지,127.1186787,36.8007346,충청남도,천안시,충청남도천안시
천안원성점,충남 천안시 원성동 124-5 101호~102호 101,127.1584624,36.8045823,충청남도,천안시,충청남도천안시
분평대로점,충북 청주시 서원구 분평동 561,127.4935284,36.6055664,충청북도,청주시,충청북도청주시
제천청전점,충북 제천시 청전동 126-1,128.2141135,37.1477051,충청북도,제천시,충청북도제천시
청주가경점,충북 청주시 서원구 개신동 698,127.4458242,36.618418,충청북도,청주시,충청북도청주시
청주대점,충북 청주시 청원구 우암동 232-8,127.48862450000001,36.651919,충청북도,청주시,충청북도청주시
충북대2호점,충북 청주시 흥덕구 복대2동 903-3,127.45592909999999,36.6343949,충청북도,청주시,충청북도청주시
충북오창점,충북 청주시 청원구 오창읍 과학산업2로 373,127.42257520000001,36.715580700000004,충청북도,청주시,충청북도청주시
충주본점,충북 충주시 연수동 1705,127.94025549999999,36.9822636,충청북도,충주시,충청북도충주시
